Feature ID,Street,zip,City,State,Lat,Lon,County
2878789,McKinley Ave,01027,Easthampton,MA,42.26676,-72.66898,25015
2878789,McKinley Ave,01027,Mount Tom,MA,42.286202,-72.616201,25015
2878789,McKinley Ave,01027,Loudville,MA,42.287589,-72.737593,25015
2878789,McKinley Ave,01027,Westhampton,MA,42.302867,-72.774538,25015
2873469,McKinley Ave,01056,Ludlow,MA,42.16009,-72.47592,25013
2873469,McKinley Ave,01056,Ludlow Center,MA,42.19176,-72.459252,25013
2879547,McKinley Ave,01075,South Hadley,MA,42.24984,-72.58152,25015
2879547,McKinley Ave,01075,Moody Corner,MA,42.280647,-72.558699,25015
2879547,McKinley Ave,01075,South Hadley Falls,MA,42.216759,-72.599534,25015
2864372,McKinley Ave,01843,Lawrence,MA,42.689974,-71.160383,25009
2864372,McKinley Ave,01843,South Lawrence,MA,42.695925,-71.153669,25009
2866188,McKinley Ave,01844,Methuen,MA,42.73184,-71.186915,25009
2866188,McKinley Ave,01844,Marsh Corner,MA,42.727868,-71.231449,25009
2893361,McKinley Ave,01851,Lowell,MA,42.627812,-71.33533,25017
2893361,McKinley Ave,01851,Highlands,MA,42.630647,-71.337006,25017
2859870,McKinley Ave,01915,Beverly,MA,42.565145,-70.853843,25009
2859870,McKinley Ave,01915,Beverly Farms,MA,42.563984,-70.810603,25009
2859870,McKinley Ave,01915,Beverly Cove,MA,42.553429,-70.85366,25009
2859870,McKinley Ave,01915,Centerville,MA,42.580651,-70.84116,25009
2859870,McKinley Ave,01915,Montserrat,MA,42.562595,-70.86616,25009
2859870,McKinley Ave,01915,North Beverly,MA,42.58065,-70.886994,25009
2912767,McKinley Ave,02026,Dedham,MA,42.244733,-71.181141,25021
2912767,McKinley Ave,02026,East Dedham,MA,42.250099,-71.157831,25021
2912767,McKinley Ave,02026,Ashcroft,MA,42.233432,-71.149497,25021
2912767,McKinley Ave,02026,Endicott,MA,42.231765,-71.15783,25021
2912767,McKinley Ave,02026,Greenlodge,MA,42.222321,-71.159219,25021
2912767,McKinley Ave,02026,Oakdale,MA,42.240377,-71.152275,25021
2912767,McKinley Ave,02026,Readyville Manor,MA,42.229266,-71.143941,25021
2912767,McKinley Ave,02026,Riverdale,MA,42.27232,-71.177276,25021
2909382,McKinley Ave,02081,Walpole,MA,42.148624,-71.255533,25021
2909382,McKinley Ave,02081,Plimptonville,MA,42.159821,-71.236998,25021
2909382,McKinley Ave,02081,West Walpole,MA,42.137043,-71.287,25021
2922847,McKinley Ave,02360,Plymouth,MA,41.886207,-70.638717,25023
2922847,McKinley Ave,02360,North Plymouth,MA,41.970937,-70.682814,25023
2922847,McKinley Ave,02360,Cedarville,MA,41.810383,-70.555308,25023
2922847,McKinley Ave,02360,Chiltonville,MA,41.937604,-70.628645,25023
2904924,McKinley Ave,02564,Siasconset,MA,41.26262,-69.96612,25019
3816525,McKinley Ave,03038,Derry,NH,42.88973,-71.27786,33015
3816525,McKinley Ave,03038,Derry Village,NH,42.891753,-71.312008,33015
6358246,McKinley Ave,05701,Rutland,VT,43.630346,-72.93586,50021
6358246,McKinley Ave,05701,East Pittsford,VT,43.671178,-72.942884,50021
6358246,McKinley Ave,05701,Mendon,VT,43.651457,-72.92705,50021
6360741,McKinley Ave,05736,Center Rutland,VT,43.594106,-73.008253,50021
1034395,McKinley Ave,06010,Bristol,CT,41.681198,-72.939577,09003
1034395,McKinley Ave,06010,Forestville,CT,41.676765,-72.920103,09003
1034395,McKinley Ave,06010,Whigville,CT,41.681578,-72.940749,09003
1059677,McKinley Ave,06360,Norwich,CT,41.52426,-72.07591,09011
1059677,McKinley Ave,06360,Baccus Corner,CT,41.514543,-72.104522,09011
1059677,McKinley Ave,06360,Greenville,CT,41.533709,-72.057299,09011
1059677,McKinley Ave,06360,Hallville,CT,41.54786,-72.089488,09011
1059677,McKinley Ave,06360,Happyland,CT,41.54786,-72.089488,09011
1059677,McKinley Ave,06360,Norwichtown,CT,41.553154,-72.105355,09011
1059677,McKinley Ave,06360,Occum,CT,41.595098,-72.050632,09011
1059677,McKinley Ave,06360,Poquetanuck,CT,41.54786,-72.089488,09011
1059677,McKinley Ave,06360,Thamesville,CT,41.510098,-72.088133,09011
1049299,McKinley Ave,06418,Derby,CT,41.327246,-73.084252,09009
1049299,McKinley Ave,06418,East Derby,CT,41.313986,-73.077608,09009
1054939,McKinley Ave,06512,East Haven,CT,41.290997,-72.865894,09009
1054939,McKinley Ave,06512,Foxon,CT,41.324542,-72.835377,09009
1054939,McKinley Ave,06512,Momauguin,CT,41.252041,-72.876212,09009
1054939,McKinley Ave,06512,Morris Cove,CT,41.258153,-72.89149,09009
1054939,McKinley Ave,06512,South End,CT,41.243986,-72.89399,09009
1049837,McKinley Ave,06515,New Haven,CT,41.328697,-72.964247,09009
1049837,McKinley Ave,06515,Westville,CT,41.330653,-72.97177,09009
1017353,McKinley Ave,06604,Bridgeport,CT,41.18292,-73.208027,09001
1022643,McKinley Ave,06604,Bridgeport,CT,41.18292,-73.208027,09001
1019018,McKinley Ave,06606,Bridgeport,CT,41.208796,-73.211807,09001
1010411,McKinley Ave,06615,Stratford,CT,41.177046,-73.133574,09001
3870560,McKinley Ave,07006,Caldwell,NJ,40.854548,-74.278892,34013
3870560,McKinley Ave,07006,West Caldwell,NJ,40.840933,-74.301815,34013
3870560,McKinley Ave,07006,North Caldwell,NJ,40.863433,-74.266259,34013
3888719,McKinley Ave,07008,Carteret,NJ,40.583203,-74.234839,34023
3888719,McKinley Ave,07008,Chrome,NJ,40.576493,-74.216256,34023
3888719,McKinley Ave,07008,West Carteret,NJ,40.594548,-74.246257,34023
3866289,McKinley Ave,07052,West Orange,NJ,40.789944,-74.22719,34013
3866289,McKinley Ave,07052,City of Orange,NJ,40.785753,-74.26506,34013
3866289,McKinley Ave,07052,Saint Cloud,NJ,40.775101,-74.273759,34013
3895071,McKinley Ave,07067,Colonia,NJ,40.590853,-74.314688,34023
3930796,McKinley Ave,07506,Hawthorne,NJ,40.954375,-74.161788,34031
3837670,McKinley Ave,07628,Dumont,NJ,40.94065,-73.99681,34003
3831296,McKinley Ave,07644,Lodi,NJ,40.878349,-74.081335,34003
3838226,McKinley Ave,07646,New Milford,NJ,40.932998,-74.017633,34003
3838226,McKinley Ave,07646,New Bridge,NJ,40.916766,-74.028195,34003
3837998,McKinley Ave,07675,Westwood,NJ,40.99121,-74.03264,34003
3837998,McKinley Ave,07675,Old Tappan,NJ,41.010653,-73.991249,34003
3837998,McKinley Ave,07675,River Vale,NJ,40.995375,-74.012083,34003
3837998,McKinley Ave,07675,Woodcliff Lake,NJ,41.003506,-74.001778,34003
3837998,McKinley Ave,07675,Washington Township,NJ,41.003506,-74.001778,34003
3837925,McKinley Ave,07676,Paramus,NJ,40.973412,-74.065078,None
3837925,McKinley Ave,07676,Emerson,NJ,40.972822,-74.056068,None
3837925,McKinley Ave,07676,Hillsdale,NJ,41.001147,-74.061905,None
3837925,McKinley Ave,07676,Ho-Ho-Kus,NJ,40.997039,-74.079271,None
3837925,McKinley Ave,07676,Ridgewood,NJ,40.985551,-74.078538,None
3837925,McKinley Ave,07676,Saddle River,NJ,41.004475,-74.077307,None
3837925,McKinley Ave,07676,Westwood,NJ,40.984625,-74.048822,None
3952980,McKinley Ave,07882,Washington,NJ,40.747698,-75.008713,34041
3952980,McKinley Ave,07882,Anderson,NJ,40.75264,-75.013787,34041
3952980,McKinley Ave,07882,Brass Castle,NJ,40.764821,-75.011006,34041
3952980,McKinley Ave,07882,Pleasant Valley,NJ,40.751488,-75.008228,34041
3952980,McKinley Ave,07882,Port Colden,NJ,40.763155,-74.953781,34041
3911978,McKinley Ave,07936,East Hanover,NJ,40.816349,-74.367747,34027
3911978,McKinley Ave,07936,Hanover Neck,NJ,40.831766,-74.352928,34027
3923165,McKinley Ave,08008,Beach Haven,NJ,39.641062,-74.192228,34029
3923165,McKinley Ave,08008,Harvey Cedars,NJ,39.706231,-74.134025,34029
3923165,McKinley Ave,08008,Long Beach,NJ,39.685675,-74.144859,34029
3923165,McKinley Ave,08008,Ship Bottom,NJ,39.642897,-74.180416,34029
3923165,McKinley Ave,08008,Surf City,NJ,39.662064,-74.165138,34029
3923165,McKinley Ave,08008,Beach Haven Crest,NJ,39.612619,-74.202917,34029
3923165,McKinley Ave,08008,Beach Haven Gardens,NJ,39.582341,-74.227085,34029
3923165,McKinley Ave,08008,Beach Haven Heights,NJ,39.534562,-74.260419,34029
3923165,McKinley Ave,08008,Beach Haven Terrace,NJ,39.58623,-74.223473,34029
3923165,McKinley Ave,08008,Brant Beach,NJ,39.620952,-74.197083,34029
3923165,McKinley Ave,08008,Brighton Beach,NJ,39.606508,-74.207917,34029
3923165,McKinley Ave,08008,Haven Beach,NJ,39.593452,-74.215695,34029
3923165,McKinley Ave,08008,Holgate,NJ,39.540118,-74.256808,34029
3923165,McKinley Ave,08008,Loveladies,NJ,39.723731,-74.133748,34029
3923165,McKinley Ave,08008,North Beach,NJ,39.679286,-74.151248,34029
3923165,McKinley Ave,08008,North Beach Haven,NJ,39.573174,-74.231529,34029
3923165,McKinley Ave,08008,Peahala Park,NJ,39.602063,-74.211528,34029
3923165,McKinley Ave,08008,Spray Beach,NJ,39.578452,-74.229585,34029
3853147,McKinley Ave,08012,Blackwood,NJ,39.790131,-75.036652,34007
3853147,McKinley Ave,08012,Turnersville,NJ,39.77317,-75.051281,34015
3853147,McKinley Ave,08012,Bells Lake,NJ,39.753726,-75.048781,34015
3853147,McKinley Ave,08012,Blenheim,NJ,39.809281,-75.077395,34007
3853147,McKinley Ave,08012,Hickstown,NJ,39.779281,-75.012112,34007
3853147,McKinley Ave,08012,Hilltop,NJ,39.824558,-75.067394,34007
3853147,McKinley Ave,08012,Lakeland,NJ,39.785392,-75.07545,34007
3853147,McKinley Ave,08012,Whitman Square,NJ,39.745948,-75.034335,34015
3873281,McKinley Ave,08012,Blackwood,NJ,39.790131,-75.036652,34007
3873281,McKinley Ave,08012,Turnersville,NJ,39.77317,-75.051281,34015
3873281,McKinley Ave,08012,Bells Lake,NJ,39.753726,-75.048781,34015
3873281,McKinley Ave,08012,Blenheim,NJ,39.809281,-75.077395,34007
3873281,McKinley Ave,08012,Hickstown,NJ,39.779281,-75.012112,34007
3873281,McKinley Ave,08012,Hilltop,NJ,39.824558,-75.067394,34007
3873281,McKinley Ave,08012,Lakeland,NJ,39.785392,-75.07545,34007
3873281,McKinley Ave,08012,Whitman Square,NJ,39.745948,-75.034335,34015
3843626,McKinley Ave,08016,Burlington,NJ,40.07122,-74.86489,34005
3843626,McKinley Ave,08016,Bustleton,NJ,40.088166,-74.782662,34005
3843626,McKinley Ave,08016,East Burlington,NJ,40.079,-74.837942,34005
3843626,McKinley Ave,08016,Orchard View,NJ,40.065944,-74.874054,34005
3843626,McKinley Ave,08016,Plaza Park,NJ,40.067889,-74.875443,34005
3843626,McKinley Ave,08016,Springside,NJ,40.060389,-74.850442,34005
3843626,McKinley Ave,08016,Stevens,NJ,40.088722,-74.824886,34005
3843626,McKinley Ave,08016,Town Estates,NJ,40.058722,-74.867387,34005
3873060,McKinley Ave,08028,Glassboro,NJ,39.696661,-75.127183,34015
3873060,McKinley Ave,08028,Aura,NJ,39.695863,-75.121415,34015
3873060,McKinley Ave,08028,Elsmere,NJ,39.696503,-75.137122,34015
3923528,McKinley Ave,08050,Manahawkin,NJ,39.702978,-74.257677,34029
3923528,McKinley Ave,08050,Bay Side,NJ,39.66873,-74.213195,34029
3923528,McKinley Ave,08050,Beach Haven West,NJ,39.669841,-74.231807,34029
3873393,McKinley Ave,08071,Pitman,NJ,39.734928,-75.136809,34015
3874898,McKinley Ave,08094,Williamstown,NJ,39.68586,-74.98332,34015
3874898,McKinley Ave,08094,Cecil,NJ,39.648449,-74.947112,34015
3874898,McKinley Ave,08094,Collings Lakes,NJ,39.595672,-74.881556,34001
3874898,McKinley Ave,08094,Downer,NJ,39.694559,-75.051838,34015
3874898,McKinley Ave,08094,Victory Lakes,NJ,39.633171,-74.966002,34015
3876208,McKinley Ave,08096,Woodbury,NJ,39.822013,-75.129669,34015
3876208,McKinley Ave,08096,Blackwood Terrace,NJ,39.805114,-75.085728,34015
3876208,McKinley Ave,08096,Almonesson,NJ,39.819003,-75.098507,34015
3876208,McKinley Ave,08096,Cooper Village,NJ,39.820114,-75.117397,34015
3876208,McKinley Ave,08096,Garden City,NJ,39.826854,-75.126663,34015
3876208,McKinley Ave,08096,Gardenville Center,NJ,39.830114,-75.122398,34015
3876208,McKinley Ave,08096,Greenfield Heights,NJ,39.809836,-75.168234,34015
3876208,McKinley Ave,08096,Jericho,NJ,39.805669,-75.139899,34015
3876208,McKinley Ave,08096,West End,NJ,39.834836,-75.165456,34015
3876208,McKinley Ave,08096,Woodbury Gardens,NJ,39.84178,-75.137121,34015
3828415,McKinley Ave,08232,Pleasantville,NJ,39.387525,-74.515196,34001
3828415,McKinley Ave,08232,Cardiff,NJ,39.387525,-74.515196,34001
3828415,McKinley Ave,08232,McKee City,NJ,39.387525,-74.515196,34001
3828415,McKinley Ave,08232,West Atlantic City,NJ,39.377894,-74.489318,34001
3861277,McKinley Ave,08251,Villas,NJ,39.01574,-74.93494,34009
3861277,McKinley Ave,08251,Bowman Manor,NJ,39.016224,-74.934062,34009
3861277,McKinley Ave,08251,Del Haven,NJ,39.04678,-74.919617,34009
3861277,McKinley Ave,08251,Miami Beach,NJ,39.034557,-74.93684,34009
3861277,McKinley Ave,08251,North Highlands Beach,NJ,39.015113,-74.944341,34009
3861277,McKinley Ave,08251,Wildwood Highlands Beach,NJ,39.013168,-74.946285,34009
3825838,McKinley Ave,08401,Atlantic City,NJ,39.377297,-74.451082,34001
3883549,McKinley Ave,08609,Trenton,NJ,40.224808,-74.741004,34021
3883549,McKinley Ave,08609,Warner Village,NJ,40.23372,-74.725716,34021
3883553,McKinley Ave,08629,Trenton,NJ,40.219558,-74.733404,34021
3923069,McKinley Ave,08721,Bayville,NJ,39.90929,-74.15486,34029
3923069,McKinley Ave,08721,Berkeley,NJ,39.900119,-74.182918,34029
3923069,McKinley Ave,08721,Cedar Beach,NJ,39.873452,-74.149305,34029
3923069,McKinley Ave,08721,Crystal Lake,NJ,39.894285,-74.188474,34029
3923069,McKinley Ave,08721,Glen Cove,NJ,39.883452,-74.142638,34029
3923069,McKinley Ave,08721,Holly Park,NJ,39.895397,-74.142916,34029
3923069,McKinley Ave,08721,Pinewald,NJ,39.895674,-74.172918,34029
3919654,McKinley Ave,08753,Toms River,NJ,39.979031,-74.160429,34029
3919654,McKinley Ave,08753,Bay Shore,NJ,39.950952,-74.113194,34029
3919654,McKinley Ave,08753,Gilford Park,NJ,39.948729,-74.137083,34029
3919654,McKinley Ave,08753,Holiday City,NJ,40.022339,-74.166252,34029
3919654,McKinley Ave,08753,Pine Lake Park,NJ,39.979031,-74.160429,34029
3919654,McKinley Ave,08753,Pine Terrace,NJ,40.008173,-74.120417,34029
3919654,McKinley Ave,08753,Pleasant Plains,NJ,39.979031,-74.160429,34029
3919654,McKinley Ave,08753,Silver Bay,NJ,40.003451,-74.122917,34029
3919654,McKinley Ave,08753,Silverton,NJ,40.015951,-74.144862,34029
3919654,McKinley Ave,08753,South Toms River,NJ,39.979031,-74.160429,34029
3892363,McKinley Ave,08816,East Brunswick,NJ,40.427697,-74.421695,34023
3892363,McKinley Ave,08816,Dunham's Corner,NJ,40.423995,-74.421818,34023
3892363,McKinley Ave,08816,Fairview Knolls,NJ,40.429273,-74.425984,34023
3892363,McKinley Ave,08816,Newton Heights,NJ,40.432884,-74.397928,34023
3892363,McKinley Ave,08816,Orchard Heights,NJ,40.437051,-74.402928,34023
3892363,McKinley Ave,08816,Patricks Corner,NJ,40.423995,-74.476819,34023
3892363,McKinley Ave,08816,Tanners Corner,NJ,40.438162,-74.39265,34023
3892363,McKinley Ave,08816,Washington Heights,NJ,40.455106,-74.409595,34023
3886946,McKinley Ave,08820,Edison,NJ,40.576611,-74.362616,34023
3893912,McKinley Ave,08846,Middlesex,NJ,40.575202,-74.499398,34023
3894734,McKinley Ave,08879,South Amboy,NJ,40.46397,-74.274168,34023
3894734,McKinley Ave,08879,Laurence Harbor,NJ,40.456774,-74.246534,34023
3894734,McKinley Ave,08879,Crossmans,NJ,40.465802,-74.2779,34023
3894734,McKinley Ave,08879,Mechanicsville,NJ,40.487328,-74.294869,34023
3894734,McKinley Ave,08879,Melrose,NJ,40.490939,-74.296813,34023
3894734,McKinley Ave,08879,Morgan,NJ,40.466773,-74.268201,34023
3894734,McKinley Ave,08879,Morgan Heights,NJ,40.462607,-74.263201,34023
3889720,McKinley Ave,08884,Spotswood,NJ,40.385707,-74.393249,34023
3891475,McKinley Ave,08902,North Brunswick,NJ,40.437705,-74.488547,34023
3891475,McKinley Ave,08902,Adams,NJ,40.450939,-74.493209,34023
3891475,McKinley Ave,08902,Berdines Corner,NJ,40.467327,-74.453486,34023
3891475,McKinley Ave,08902,Black Horse,NJ,40.418162,-74.502098,34023
3891475,McKinley Ave,08902,Maple Meade,NJ,40.443717,-74.475431,34023
3891475,McKinley Ave,08902,Red Lion,NJ,40.443717,-74.47043,34023
4168473,McKinley Ave,10306,Staten Island,NY,40.559668,-74.12241,36085
4168473,McKinley Ave,10306,Midland Beach,NY,40.573161,-74.094586,36085
4168473,McKinley Ave,10306,New Dorp,NY,40.573994,-74.115976,36085
4168473,McKinley Ave,10306,New Dorp Beach,NY,40.565383,-74.10292,36085
4240985,McKinley Ave,10595,Valhalla,NY,41.09269,-73.76848,36119
4240985,McKinley Ave,10595,Eastview,NY,41.085897,-73.782645,36119
4249969,McKinley Ave,10606,White Plains,NY,41.020573,-73.775846,36119
4144915,McKinley Ave,10925,Greenwood Lake,NY,41.22259,-74.29432,36071
4144915,McKinley Ave,10925,Indian Park,NY,41.208428,-74.312095,36071
4107905,McKinley Ave,11010,Franklin Square,NY,40.700101,-73.674074,36059
4085969,McKinley Ave,11208,Brooklyn,NY,40.669689,-73.871371,36047
4108707,McKinley Ave,11507,Albertson,NY,40.77158,-73.64816,36059
4108707,McKinley Ave,11507,Searingtown,NY,40.774823,-73.655685,36059
4105283,McKinley Ave,11554,East Meadow,NY,40.72135,-73.55877,36059
4111058,McKinley Ave,11558,Island Park,NY,40.606953,-73.654724,36059
4111058,McKinley Ave,11558,Barnum Island,NY,40.604548,-73.644019,36059
4111058,McKinley Ave,11558,Harbor Isle,NY,40.603437,-73.664575,36059
4115055,McKinley Ave,11563,Lynbrook,NY,40.657602,-73.672574,36059
4115055,McKinley Ave,11563,North Lynbrook,NY,40.66859,-73.6736,36059
4118141,McKinley Ave,11590,Westbury,NY,40.74505,-73.571521,36059
4118141,McKinley Ave,11590,New Cassel,NY,40.758989,-73.569571,36059
4118141,McKinley Ave,11590,Salisbury,NY,40.745656,-73.560127,36059
4110871,McKinley Ave,11710,Bellmore,NY,40.6729,-73.53652,36059
4110871,McKinley Ave,11710,North Bellmore,NY,40.69149,-73.53346,36059
4113624,McKinley Ave,11735,Farmingdale,NY,40.732747,-73.432789,36059
4113624,McKinley Ave,11735,South Farmingdale,NY,40.720656,-73.440123,36059
4113624,McKinley Ave,11735,East Farmingdale,NY,40.729266,-73.416789,36103
4211954,McKinley Ave,11757,Lindenhurst,NY,40.688799,-73.376475,36103
4211954,McKinley Ave,11757,North Lindenhurst,NY,40.714266,-73.38151,36103
4119196,McKinley Ave,11801,Hicksville,NY,40.762304,-73.524452,36059
4103208,McKinley Ave,12010,Amsterdam,NY,42.906298,-74.229042,36057
4103208,McKinley Ave,12010,Cranesville,NY,42.917297,-74.134851,36057
4103208,McKinley Ave,12010,Green Corners,NY,42.939242,-74.080961,36093
4103208,McKinley Ave,12010,Lost Valley,NY,42.848686,-74.272075,36057
4103208,McKinley Ave,12010,Manny Corners,NY,42.947019,-74.144852,36057
4103208,McKinley Ave,12010,Minaville,NY,42.885908,-74.216519,36057
4103208,McKinley Ave,12010,Perth,NY,43.017574,-74.19402,36035
4103208,McKinley Ave,12010,Scotch Bush,NY,42.857575,-74.195407,36057
4103208,McKinley Ave,12010,South Amsterdam,NY,42.934797,-74.195964,36057
4103208,McKinley Ave,12010,Wallins Corner,NY,42.972019,-74.17013,36057
4103208,McKinley Ave,12010,West Charlton,NY,42.959242,-74.027071,36091
4103208,McKinley Ave,12010,West Galway,NY,43.003686,-74.10124,36035
4103208,McKinley Ave,12010,West Perth,NY,42.937626,-74.173332,36035
4074509,McKinley Ave,12095,Johnstown,NY,43.00674,-74.36764,36035
4074509,McKinley Ave,12095,Garoga,NY,43.043961,-74.516529,36035
4074509,McKinley Ave,12095,Kecks Center,NY,43.007851,-74.456527,36035
4074509,McKinley Ave,12095,North Bush,NY,43.084794,-74.492362,36035
4074509,McKinley Ave,12095,Rockwood,NY,43.058128,-74.504029,36035
4074531,McKinley Ave,12134,Northville,NY,43.266223,-74.228535,36035
4074531,McKinley Ave,12134,Edinburg,NY,43.221739,-74.104019,36091
4074531,McKinley Ave,12134,Batchellerville,NY,43.266223,-74.228535,36091
4074531,McKinley Ave,12134,Benson,NY,43.252015,-74.278469,36041
4074531,McKinley Ave,12134,Fox Hill,NY,43.193128,-74.044851,36091
4074531,McKinley Ave,12134,Maple Grove,NY,43.256183,-74.153743,36035
4074531,McKinley Ave,12134,Upper Benson,NY,43.249237,-74.336249,36041
4163347,McKinley Ave,12180,Troy,NY,42.748588,-73.599536,36083
4163347,McKinley Ave,12180,Albia,NY,42.703412,-73.651784,36083
4163347,McKinley Ave,12180,Eagle Mills,NY,42.729245,-73.603728,36083
4163347,McKinley Ave,12180,Eastmor,NY,42.748588,-73.599536,36083
4163347,McKinley Ave,12180,Raymertown,NY,42.813967,-73.534559,36083
4163347,McKinley Ave,12180,Snyders Corner,NY,42.748588,-73.599536,36083
4163347,McKinley Ave,12180,Sycaway,NY,42.742023,-73.652618,36083
4184448,McKinley Ave,12303,Schenectady,NY,42.782276,-73.944818,36093
4184448,McKinley Ave,12303,Carman,NY,42.770633,-73.933457,36093
4184448,McKinley Ave,12303,Coldbrook,NY,42.778688,-73.943735,36093
4184448,McKinley Ave,12303,Rotterdam,NY,42.77856,-73.95375,36093
4145270,McKinley Ave,12586,Walden,NY,41.562765,-74.170102,36071
4145270,McKinley Ave,12586,East Walden,NY,41.558705,-74.157646,36071
4145270,McKinley Ave,12586,Lake Osiris Colony,NY,41.579538,-74.168202,36071
4145270,McKinley Ave,12586,Saint Andrew,NY,41.56926,-74.145423,36071
4045938,McKinley Ave,12901,Plattsburgh,NY,44.704021,-73.471148,36019
4045938,McKinley Ave,12901,Beekmantown,NY,44.770874,-73.49208,36019
4045938,McKinley Ave,12901,Cliff Haven,NY,44.658655,-73.440968,36019
4045938,McKinley Ave,12901,Cumberland Head,NY,44.716432,-73.402634,36019
4045938,McKinley Ave,12901,East Beekmantown,NY,44.752541,-73.470135,36019
4045938,McKinley Ave,12901,Halseys Corners,NY,44.70782,-73.469024,36019
4045938,McKinley Ave,12901,Rocky Point,NY,44.722543,-73.411801,36019
4225581,McKinley Ave,13073,Groton,NY,42.579298,-76.392709,36109
4225581,McKinley Ave,13073,East Lansing,NY,42.568405,-76.469383,36109
4225581,McKinley Ave,13073,Groton City,NY,42.58367,-76.387923,36109
4225581,McKinley Ave,13073,North Lansing,NY,42.611183,-76.497439,36109
4225581,McKinley Ave,13073,Peruville,NY,42.550349,-76.371324,36109
4225581,McKinley Ave,13073,West Groton,NY,42.604238,-76.445493,36109
4134949,McKinley Ave,13205,Syracuse,NY,43.006816,-76.142495,36067
4080059,McKinley Ave,13329,Dolgeville,NY,43.1009,-74.77293,36043
4080059,McKinley Ave,13329,Oppenheim,NY,43.110979,-74.70351,36035
4175886,McKinley Ave,13662,Massena,NY,44.9281,-74.89186,36089
4175886,McKinley Ave,13662,Louisville,NY,44.89755,-75.015763,36089
4175886,McKinley Ave,13662,Massena Center,NY,44.960049,-74.831303,36089
4175886,McKinley Ave,13662,Massena Springs,NY,44.914494,-74.88742,36089
4175886,McKinley Ave,13662,Tucker Terrace,NY,44.948658,-74.973263,36089
4029509,McKinley Ave,13760,Endicott,NY,42.150588,-76.055064,36007
4029509,McKinley Ave,13760,Endwell,NY,42.112853,-76.021034,36007
4029509,McKinley Ave,13760,West Corners,NY,42.11063,-76.071592,36007
4029509,McKinley Ave,13760,Campville,NY,42.087575,-76.148817,36107
4029509,McKinley Ave,13760,Crest View Heights,NY,42.071741,-76.117149,36107
4029509,McKinley Ave,13760,Union Center,NY,42.151464,-76.069092,36007
4076697,McKinley Ave,14020,Batavia,NY,42.980544,-78.231764,36037
4076697,McKinley Ave,14020,Bushville,NY,43.002004,-78.258352,36037
4076697,McKinley Ave,14020,Daws,NY,43.044504,-78.19224,36037
4076697,McKinley Ave,14020,North Pembroke,NY,43.021171,-78.335854,36037
4076697,McKinley Ave,14020,West Batavia,NY,42.979782,-78.299463,36037
4036883,McKinley Ave,14048,Dunkirk,NY,42.487716,-79.328287,36013
4036883,McKinley Ave,14048,Van Buren Bay,NY,42.450335,-79.406434,36013
4060572,McKinley Ave,14217,Buffalo,NY,42.971869,-78.876868,36029
4060572,McKinley Ave,14217,Kenmore,NY,42.965891,-78.870036,36029
4063141,McKinley Ave,14221,Buffalo,NY,42.968507,-78.749153,36029
4063141,McKinley Ave,14221,Williamsville,NY,42.963947,-78.737809,36029
4063141,McKinley Ave,14221,Harris Hill,NY,42.964781,-78.677529,36029
4125723,McKinley Ave,14305,Niagara Falls,NY,43.117255,-79.018415,36063
4255512,McKinley Ave,14527,Penn Yan,NY,42.637423,-77.069925,36123
4255512,McKinley Ave,14527,Bellona,NY,42.746457,-77.041913,36123
4255512,McKinley Ave,14527,Benton Center,NY,42.717291,-77.066636,36123
4255512,McKinley Ave,14527,East Potter,NY,42.738957,-77.14414,36123
4255512,McKinley Ave,14527,Friend,NY,42.662846,-77.183586,36123
4255512,McKinley Ave,14527,Milo Center,NY,42.634514,-76.99941,36123
4255512,McKinley Ave,14527,Milo Mills,NY,42.658681,-77.026079,36123
4255512,McKinley Ave,14527,Potter,NY,42.665508,-77.066309,36123
4255512,McKinley Ave,14527,Second Milo,NY,42.614792,-77.038579,36123
4255512,McKinley Ave,14527,Voak,NY,42.731457,-77.133029,36123
4255512,McKinley Ave,14527,Yatesville,NY,42.672013,-77.137473,36123
4037304,McKinley Ave,14701,Jamestown,NY,42.08016,-79.25671,36013
4037304,McKinley Ave,14701,Busti,NY,42.038113,-79.283383,36013
4037304,McKinley Ave,14701,Elmhurst,NY,42.118113,-79.293659,36013
4037304,McKinley Ave,14701,Fluvanna,NY,42.119224,-79.291993,36013
4037304,McKinley Ave,14701,Kiantone,NY,42.022002,-79.198104,36013
4037304,McKinley Ave,14701,Kimball Stand,NY,42.17478,-79.255047,36013
4037304,McKinley Ave,14701,Stillwater,NY,42.058947,-79.218659,36013
4037304,McKinley Ave,14701,Sunnyside,NY,42.08016,-79.25671,36013
4193101,McKinley Ave,14843,Hornell,NY,42.32785,-77.6611,36101
4193101,McKinley Ave,14843,Hartsville,NY,42.247015,-77.693881,36101
4193101,McKinley Ave,14843,North Hornell,NY,42.346181,-77.66138,36101
4193101,McKinley Ave,14843,South Hornell,NY,42.302015,-77.655824,36101
5109202,McKinley Ave,15001,Aliquippa,PA,40.63673,-80.24006,42007
5109202,McKinley Ave,15001,Crestmont Village,PA,40.592289,-80.27145,42007
5109202,McKinley Ave,15001,Davidson Heights,PA,40.5834,-80.259783,42007
5109202,McKinley Ave,15001,Five Points,PA,40.571734,-80.255894,42007
5109202,McKinley Ave,15001,Gringo,PA,40.563956,-80.27145,42007
5109202,McKinley Ave,15001,New Sheffield,PA,40.598956,-80.280061,42007
5109202,McKinley Ave,15001,Scottsville,PA,40.582845,-80.258672,42007
5109202,McKinley Ave,15001,Woodlawn,PA,40.617845,-80.246172,42007
5083908,McKinley Ave,15049,Harwick,PA,40.55673,-79.80505,42003
5370827,McKinley Ave,15062,Monessen,PA,40.14841,-79.88783,42129
5092027,McKinley Ave,15132,McKeesport,PA,40.339767,-79.842783,42003
5092027,McKinley Ave,15132,Versailles,PA,40.315625,-79.831158,42003
5089378,McKinley Ave,15202,Pittsburgh,PA,40.505165,-80.06783,42003
5089378,McKinley Ave,15202,Bellevue,PA,40.493958,-80.051722,42003
5089378,McKinley Ave,15202,Avalon,PA,40.500902,-80.067555,42003
5089378,McKinley Ave,15202,Ben Avon,PA,40.508124,-80.083111,42003
5089378,McKinley Ave,15202,Ben Avon Heights,PA,40.51368,-80.073111,42003
5089378,McKinley Ave,15202,Emsworth,PA,40.510068,-80.094501,42003
5096506,McKinley Ave,15221,Pittsburgh,PA,40.435791,-79.86427,42003
5096506,McKinley Ave,15221,Wilkinsburg,PA,40.441736,-79.881994,42003
5096506,McKinley Ave,15221,Braddock Hills,PA,40.417291,-79.865049,42003
5096506,McKinley Ave,15221,Bryn Mawr,PA,40.435791,-79.86427,42003
5096506,McKinley Ave,15221,Churchill,PA,40.435791,-79.86427,42003
5096506,McKinley Ave,15221,Forest Hills,PA,40.419791,-79.850049,42003
5101366,McKinley Ave,15223,Pittsburgh,PA,40.505182,-79.952226,42003
5101366,McKinley Ave,15223,Etna,PA,40.504235,-79.948941,42003
5101366,McKinley Ave,15223,Cherry City,PA,40.505182,-79.952226,42003
5088837,McKinley Ave,15238,Pittsburgh,PA,40.537201,-79.879444,42003
5088837,McKinley Ave,15238,Blawnox,PA,40.493402,-79.860605,42003
5088837,McKinley Ave,15238,Dorseyville,PA,40.577012,-79.888663,42003
5088837,McKinley Ave,15238,Fairview Heights,PA,40.518679,-79.857272,42003
5088837,McKinley Ave,15238,Fox Chapel,PA,40.513402,-79.879773,42003
5088837,McKinley Ave,15238,Harmarville,PA,40.531179,-79.848383,42003
5088837,McKinley Ave,15238,Montrose Hill,PA,40.503679,-79.855605,42003
5088837,McKinley Ave,15238,Park View,PA,40.537201,-79.879444,42003
5351056,McKinley Ave,15301,Washington,PA,40.135391,-80.146709,42125
5351056,McKinley Ave,15301,Arden Mines,PA,40.218682,-80.264505,42125
5351056,McKinley Ave,15301,Banetown,PA,40.078405,-80.228116,42125
5351056,McKinley Ave,15301,Buffalo,PA,40.22646,-80.360342,42125
5351056,McKinley Ave,15301,Chambers Mill,PA,40.099516,-80.243394,42125
5351056,McKinley Ave,15301,East Washington,PA,40.173682,-80.23756,42125
5351056,McKinley Ave,15301,Elwood Park,PA,40.16396,-80.282284,42125
5351056,McKinley Ave,15301,Franklin Farms,PA,40.155071,-80.270339,42125
5351056,McKinley Ave,15301,Gabby Heights,PA,40.153127,-80.260339,42125
5351056,McKinley Ave,15301,Green Hills,PA,40.112294,-80.300063,42125
5351056,McKinley Ave,15301,Gretna,PA,40.245904,-80.303117,42125
5351056,McKinley Ave,15301,Laboratory,PA,40.155071,-80.213393,42125
5351056,McKinley Ave,15301,Lincoln Hill,PA,40.153683,-80.292562,42125
5351056,McKinley Ave,15301,Log Pile,PA,40.163127,-80.292562,42125
5351056,McKinley Ave,15301,Lone Pine,PA,40.074239,-80.172281,42125
5351056,McKinley Ave,15301,Tylerdale,PA,40.180904,-80.250894,42125
5351056,McKinley Ave,15301,Vance,PA,40.165349,-80.193948,42125
5351056,McKinley Ave,15301,Vankirk,PA,40.120905,-80.242839,42125
5351056,McKinley Ave,15301,Wolfdale,PA,40.192849,-80.287839,42125
5214341,McKinley Ave,15401,Uniontown,PA,39.944884,-79.770063,42051
5214341,McKinley Ave,15401,Oliphant Furnace,PA,39.842299,-79.72588,42051
5214341,McKinley Ave,15401,Amend,PA,39.872854,-79.789214,42051
5214341,McKinley Ave,15401,Chadville,PA,39.866465,-79.751713,42051
5214341,McKinley Ave,15401,Collier,PA,39.850354,-79.778659,42051
5214341,McKinley Ave,15401,Dearth,PA,39.941465,-79.794489,42051
5214341,McKinley Ave,15401,East Uniontown,PA,39.899798,-79.697821,42051
5214341,McKinley Ave,15401,Evans,PA,39.899926,-79.745662,42051
5214341,McKinley Ave,15401,Gilmore,PA,39.899926,-79.745662,42051
5214341,McKinley Ave,15401,Haddenville,PA,39.92952,-79.771155,42051
5214341,McKinley Ave,15401,Hatfield,PA,39.877854,-79.739212,42051
5214341,McKinley Ave,15401,Hays,PA,39.876465,-79.783936,42051
5214341,McKinley Ave,15401,Hutchinson,PA,39.862576,-79.702823,42051
5214341,McKinley Ave,15401,Leith,PA,39.885076,-79.726433,42051
5214341,McKinley Ave,15401,Meadowbrook,PA,39.872854,-79.7156,42051
5214341,McKinley Ave,15401,Newcomer,PA,39.879243,-79.79227,42051
5214341,McKinley Ave,15401,Phillips,PA,39.939243,-79.728931,42051
5214341,McKinley Ave,15401,Rocks Works,PA,39.944243,-79.7881,42051
5214341,McKinley Ave,15401,Searights,PA,39.944798,-79.813657,42051
5214341,McKinley Ave,15401,Shamrock,PA,39.917854,-79.806435,42051
5214341,McKinley Ave,15401,Smiley,PA,39.838688,-79.802827,42051
5214341,McKinley Ave,15401,South Uniontown,PA,39.892854,-79.746989,42051
5214341,McKinley Ave,15401,Vances Mill,PA,39.952576,-79.730875,42051
5214341,McKinley Ave,15401,Walnut Hill,PA,39.899926,-79.745662,42051
5214341,McKinley Ave,15401,York Run,PA,39.832577,-79.779493,42051
5213118,McKinley Ave,15474,Point Marion,PA,39.73897,-79.89867,42051
5213118,McKinley Ave,15474,McKinley Hill,PA,39.730634,-79.900891,42051
5213118,McKinley Ave,15474,Sprucetown,PA,39.752856,-79.910613,42051
5213118,McKinley Ave,15474,Winstead,PA,39.758967,-79.928113,42051
5214007,McKinley Ave,15474,Point Marion,PA,39.73897,-79.89867,42051
5214007,McKinley Ave,15474,McKinley Hill,PA,39.730634,-79.900891,42051
5214007,McKinley Ave,15474,Sprucetown,PA,39.752856,-79.910613,42051
5214007,McKinley Ave,15474,Winstead,PA,39.758967,-79.928113,42051
5364190,McKinley Ave,15629,East Vandergrift,PA,40.598047,-79.562383,42129
5371642,McKinley Ave,15632,Export,PA,40.429723,-79.634789,42129
5371642,McKinley Ave,15632,Dunningtown,PA,40.421179,-79.582265,42129
5371642,McKinley Ave,15632,Mamont,PA,40.482011,-79.590322,42129
5371642,McKinley Ave,15632,Newlonsburg,PA,40.424513,-79.664489,42129
5371642,McKinley Ave,15632,West Export,PA,40.422012,-79.635877,42129
5371642,McKinley Ave,15632,White Valley,PA,40.415901,-79.598376,42129
5371642,McKinley Ave,15632,Wiester,PA,40.439146,-79.600116,42129
5369642,McKinley Ave,15644,Jeannette,PA,40.32812,-79.61532,42129
5369642,McKinley Ave,15644,Boquet,PA,40.381457,-79.602265,42129
5369642,McKinley Ave,15644,Lincoln Heights,PA,40.307292,-79.616986,42129
5371127,McKinley Ave,15650,Latrobe,PA,40.32118,-79.37948,42129
5371127,McKinley Ave,15650,Baggaley,PA,40.268404,-79.372536,42129
5371127,McKinley Ave,15650,Beatty,PA,40.301736,-79.418371,42129
5371127,McKinley Ave,15650,Cooperstown,PA,40.305903,-79.365314,42129
5371127,McKinley Ave,15650,Donohoe,PA,40.314236,-79.474483,42129
5371127,McKinley Ave,15650,Dorothy,PA,40.302848,-79.39337,42129
5371127,McKinley Ave,15650,Edgewater Terrace,PA,40.286182,-79.351147,42129
5371127,McKinley Ave,15650,Kingston,PA,40.292015,-79.341147,42129
5371127,McKinley Ave,15650,Lawson Heights,PA,40.291737,-79.389203,42129
5371127,McKinley Ave,15650,Lloydsville,PA,40.310625,-79.40087,42129
5371127,McKinley Ave,15650,Lycippus,PA,40.22896,-79.428926,42129
5371127,McKinley Ave,15650,Manito,PA,40.27257,-79.39837,42129
5371127,McKinley Ave,15650,Marguerite,PA,40.263681,-79.463371,42129
5371127,McKinley Ave,15650,McChesneytown,PA,40.316192,-79.359911,42129
5371127,McKinley Ave,15650,McClarran,PA,40.325069,-79.468094,42129
5371127,McKinley Ave,15650,Oakville,PA,40.277177,-79.392907,42129
5371127,McKinley Ave,15650,Old Crabtree,PA,40.350069,-79.438372,42129
5371127,McKinley Ave,15650,Saint Vincent Shaft,PA,40.283959,-79.399759,42129
5371127,McKinley Ave,15650,Trauger,PA,40.232848,-79.462537,42129
5368137,McKinley Ave,15690,Vandergrift,PA,40.60284,-79.56477,42129
5368137,McKinley Ave,15690,Dime,PA,40.656176,-79.532822,42005
5368137,McKinley Ave,15690,Kepple Hill,PA,40.611454,-79.568378,42005
5368137,McKinley Ave,15690,Kiskimere,PA,40.619788,-79.583656,42005
5368137,McKinley Ave,15690,North Vandergrift,PA,40.607288,-79.559489,42005
5368137,McKinley Ave,15690,Vandergrift Heights,PA,40.595344,-79.572822,42129
5368137,McKinley Ave,15690,West Vandergrift,PA,40.600621,-79.583656,42129
5146692,McKinley Ave,15905,Johnstown,PA,40.290673,-78.969902,42021
5146692,McKinley Ave,15905,Bens Creek,PA,40.282575,-78.936414,42021
5146692,McKinley Ave,15905,Elim,PA,40.297852,-78.942526,42021
5146692,McKinley Ave,15905,Ferndale,PA,40.288964,-78.914747,42021
5146692,McKinley Ave,15905,Southmont,PA,40.31063,-78.938637,42021
5146692,McKinley Ave,15905,Westmont,PA,40.31563,-78.951693,42021
5226380,McKinley Ave,15949,Robinson,PA,40.40424,-79.13948,42063
5141152,McKinley Ave,16001,Butler,PA,40.885861,-79.934048,42019
5141152,McKinley Ave,16001,Meridian,PA,40.848398,-79.962002,42019
5141152,McKinley Ave,16001,Carbon Center,PA,40.910025,-79.945191,42019
5141152,McKinley Ave,16001,Euclid,PA,40.910025,-79.945191,42019
5141152,McKinley Ave,16001,Greenwood Village,PA,40.88062,-79.956446,42019
5141152,McKinley Ave,16001,Jefferson Center,PA,40.910025,-79.945191,42019
5141152,McKinley Ave,16001,Mill Run,PA,40.910025,-79.945191,42013
5141152,McKinley Ave,16001,Mount Chestnut Springs,PA,40.886453,-79.991447,42019
5141152,McKinley Ave,16001,Nixon,PA,40.910025,-79.945191,42019
5141152,McKinley Ave,16001,North Butler,PA,40.871731,-79.879777,42019
5141152,McKinley Ave,16001,Northvue,PA,40.92062,-79.932,42019
5141152,McKinley Ave,16001,Oneida,PA,40.921731,-79.879776,42019
5141152,McKinley Ave,16001,Shanor Heights,PA,40.90062,-79.909222,42019
5141152,McKinley Ave,16001,Timberly Heights,PA,40.912286,-79.925611,42019
5141152,McKinley Ave,16001,Unionville,PA,40.941453,-79.962,42019
5141152,McKinley Ave,16001,Vogleyville,PA,40.910025,-79.945191,42019
5141152,McKinley Ave,16001,Windward Heights,PA,40.904231,-79.906999,42019
5348071,McKinley Ave,16365,Warren,PA,41.84356,-79.172619,42123
5348071,McKinley Ave,16365,Glade,PA,41.82756,-79.120599,42123
5348071,McKinley Ave,16365,Hemlock,PA,41.849227,-79.057542,42123
5348071,McKinley Ave,16365,North Warren,PA,41.874226,-79.152267,42123
5348071,McKinley Ave,16365,Shipmans Eddy,PA,41.829782,-79.086987,42123
5348071,McKinley Ave,16365,Starbrick,PA,41.840337,-79.205324,42123
5205038,McKinley Ave,16441,Waterford,PA,41.970601,-79.997581,42049
5205038,McKinley Ave,16441,Indian Head,PA,41.8995,-79.995053,42049
5205038,McKinley Ave,16441,Le Boeuf Gardens,PA,41.929778,-79.981997,42049
5205775,McKinley Ave,16503,Erie,PA,42.126757,-80.061029,42049
5193315,McKinley Ave,17033,Hershey,PA,40.269748,-76.636357,42043
5193315,McKinley Ave,17033,Bachmanville,PA,40.242592,-76.594691,42043
5193315,McKinley Ave,17033,Hockersville,PA,40.263424,-76.652192,42043
5193315,McKinley Ave,17033,Palmdale,PA,40.297869,-76.61858,42043
5193315,McKinley Ave,17033,Sand Beach,PA,40.271823,-76.637562,42043
5193315,McKinley Ave,17033,Union Deposit,PA,40.290368,-76.681914,42043
5255162,McKinley Ave,17046,Lebanon,PA,40.381212,-76.436791,42075
5374967,McKinley Ave,17331,Hanover,PA,39.78969,-76.977984,42133
5374967,McKinley Ave,17331,Blooming Grove,PA,39.794823,-76.944146,42133
5374967,McKinley Ave,17331,Brushtown,PA,39.797877,-77.046093,42001
5374967,McKinley Ave,17331,Centennial,PA,39.815376,-77.058871,42001
5374967,McKinley Ave,17331,Edgegrove,PA,39.818432,-77.033037,42001
5374967,McKinley Ave,17331,Gnatstown,PA,39.867599,-76.928866,42133
5374967,McKinley Ave,17331,Green Springs,PA,39.848988,-77.003314,42001
5374967,McKinley Ave,17331,Hobart,PA,39.742879,-76.904423,42133
5374967,McKinley Ave,17331,Jacobs Mills,PA,39.8326,-76.928033,42133
5374967,McKinley Ave,17331,Midway,PA,39.808433,-77.002759,42001
5374967,McKinley Ave,17331,Moulstown,PA,39.852044,-76.932755,42133
5374967,McKinley Ave,17331,Mount Pleasant,PA,39.779544,-77.00637,42001
5374967,McKinley Ave,17331,New Baltimore,PA,39.825099,-76.973313,42133
5374967,McKinley Ave,17331,Parkville,PA,39.781212,-76.963313,42133
5374967,McKinley Ave,17331,Pennville,PA,39.789544,-76.998037,42133
5304716,McKinley Ave,18013,Bangor,PA,40.86565,-75.20657,42095
5304716,McKinley Ave,18013,East Bangor,PA,40.87954,-75.18379,42095
5304716,McKinley Ave,18013,Roseto,PA,40.880651,-75.214624,42095
5304716,McKinley Ave,18013,Factoryville,PA,40.824819,-75.209623,42095
5304716,McKinley Ave,18013,Gruvertown,PA,40.822875,-75.150732,42095
5304716,McKinley Ave,18013,Mount Pleasant,PA,40.806486,-75.155177,42095
5304716,McKinley Ave,18013,North Bangor,PA,40.904818,-75.194068,42095
5304716,McKinley Ave,18013,Richmond,PA,40.845653,-75.142399,42095
5304716,McKinley Ave,18013,Riverton,PA,40.827876,-75.086008,42095
5304716,McKinley Ave,18013,Stier,PA,40.898152,-75.152956,42095
5304716,McKinley Ave,18013,West Bangor,PA,40.84876,-75.177272,42095
5258653,McKinley Ave,18015,Bethlehem,PA,40.58883,-75.351958,42095
5258653,McKinley Ave,18015,Fountain Hill,PA,40.601487,-75.395181,42077
5258653,McKinley Ave,18015,Bingen,PA,40.557322,-75.352957,42095
5258653,McKinley Ave,18015,Colesville,PA,40.585869,-75.367239,42077
5258653,McKinley Ave,18015,Seidersville,PA,40.587877,-75.384625,42095
5258653,McKinley Ave,18015,Spring Valley,PA,40.5526,-75.358791,42095
5258653,McKinley Ave,18015,Steel City,PA,40.627877,-75.327679,42095
5258653,McKinley Ave,18015,University Heights,PA,40.59621,-75.389625,42095
5258653,McKinley Ave,18015,Wydnor,PA,40.581765,-75.387681,42095
5257874,McKinley Ave,18052,Whitehall,PA,40.656746,-75.504128,42077
5257874,McKinley Ave,18052,Hokendauqua,PA,40.662041,-75.491017,42077
5257874,McKinley Ave,18052,Arlington Knolls,PA,40.656763,-75.49685,42077
5257874,McKinley Ave,18052,Cementon,PA,40.689263,-75.507684,42077
5257874,McKinley Ave,18052,Dewey Heights,PA,40.683707,-75.512684,42077
5257874,McKinley Ave,18052,Egypt,PA,40.680096,-75.529907,42077
5257874,McKinley Ave,18052,Evergreen Park,PA,40.641486,-75.484628,42077
5257874,McKinley Ave,18052,Home Park,PA,40.682319,-75.516017,42077
5257874,McKinley Ave,18052,Mickleys Gardens,PA,40.649819,-75.505184,42077
5257874,McKinley Ave,18052,Stiles,PA,40.665374,-75.508239,42077
5257874,McKinley Ave,18052,West Catasauqua,PA,40.645653,-75.47435,42077
5286372,McKinley Ave,18301,East Stroudsburg,PA,40.99954,-75.18129,42089
5286372,McKinley Ave,18301,Craigs Meadow,PA,41.036761,-75.137401,42089
5286372,McKinley Ave,18301,Echo Lake,PA,41.042703,-75.175581,42089
5286372,McKinley Ave,18301,Mount Zion,PA,41.016482,-75.226015,42089
5286372,McKinley Ave,18301,Shoemakers,PA,41.042703,-75.175581,42089
5135356,McKinley Ave,19020,Bensalem,PA,40.10455,-74.95128,42017
5135356,McKinley Ave,19020,Cornwells Heights,PA,40.076778,-74.948779,42017
5135356,McKinley Ave,19020,Andalusia,PA,40.069555,-74.97128,42017
5135356,McKinley Ave,19020,Bridgewater,PA,40.097888,-74.919333,42017
5135356,McKinley Ave,19020,Eddington,PA,40.084555,-74.94489,42017
5135356,McKinley Ave,19020,Eddington Gardens,PA,40.099277,-74.955168,42017
5135356,McKinley Ave,19020,Ellerslie,PA,40.10761,-74.916278,42017
5135356,McKinley Ave,19020,Glen Ashton Farms,PA,40.103444,-74.916,42017
5135356,McKinley Ave,19020,Newportville Terrace,PA,40.122055,-74.906555,42017
5135356,McKinley Ave,19020,Nottingham,PA,40.120388,-74.968502,42017
5200992,McKinley Ave,19033,Folsom,PA,39.890962,-75.327282,42045
5132804,McKinley Ave,19047,Langhorne,PA,40.179971,-74.912096,42017
5132804,McKinley Ave,19047,Penndel,PA,40.152054,-74.916555,42017
5132804,McKinley Ave,19047,Bridgetown,PA,40.179971,-74.912096,42017
5132804,McKinley Ave,19047,Feasterville-Trevose,PA,40.179971,-74.912096,42017
5132804,McKinley Ave,19047,Hulmeville,PA,40.143166,-74.911,42017
5132804,McKinley Ave,19047,Langhorne Gardens,PA,40.180387,-74.88711,42017
5132804,McKinley Ave,19047,Langhorne Manor,PA,40.167054,-74.917666,42017
5132804,McKinley Ave,19047,Langhorne Terrace,PA,40.171776,-74.949334,42017
5132804,McKinley Ave,19047,Linconia,PA,40.179971,-74.912096,42017
5132804,McKinley Ave,19047,Neshaminy Falls,PA,40.179971,-74.912096,42017
5132804,McKinley Ave,19047,Neshaminy Hills,PA,40.179971,-74.912096,42017
5132804,McKinley Ave,19047,Neshaminy Woods,PA,40.179971,-74.912096,42017
5132804,McKinley Ave,19047,Parkland,PA,40.158999,-74.931834,42017
5132804,McKinley Ave,19047,Woodbourne,PA,40.192331,-74.888777,42017
5197508,McKinley Ave,19050,Lansdowne,PA,39.93817,-75.27185,42045
5197508,McKinley Ave,19050,Yeadon,PA,39.939002,-75.255461,42045
5197508,McKinley Ave,19050,East Lansdowne,PA,39.945668,-75.261294,42045
5197508,McKinley Ave,19050,Fernwood,PA,39.938446,-75.25296,42045
5133037,McKinley Ave,19067,Morrisville,PA,40.208408,-74.82914,42017
5133037,McKinley Ave,19067,Yardley,PA,40.245664,-74.845997,42017
5133037,McKinley Ave,19067,Woodside,PA,40.221775,-74.875443,42017
5197638,McKinley Ave,19074,Norwood,PA,39.888412,-75.29818,42045
5164362,McKinley Ave,19355,Malvern,PA,40.03622,-75.51381,42029
5164362,McKinley Ave,19355,Frazer,PA,40.032329,-75.556038,42029
5164362,McKinley Ave,19355,Cedar Hollow,PA,40.072606,-75.522697,42029
5164362,McKinley Ave,19355,General Warren Village,PA,40.041774,-75.523256,42029
5164362,McKinley Ave,19355,Green Tree,PA,40.037885,-75.494644,42029
5164362,McKinley Ave,19355,Planebrook,PA,40.039551,-75.573816,42029
5164362,McKinley Ave,19355,Sugartown,PA,39.999831,-75.507982,42029
5297714,McKinley Ave,19401,Norristown,PA,40.13018,-75.331629,42091
5297714,McKinley Ave,19401,Betzwood,PA,40.13018,-75.331629,42091
5297714,McKinley Ave,19401,Black Horse,PA,40.13018,-75.331629,42091
5297714,McKinley Ave,19401,East Norriton,PA,40.13018,-75.331629,42091
5297714,McKinley Ave,19401,Grand View Heights,PA,40.135108,-75.327681,42091
5297714,McKinley Ave,19401,Hickorytown,PA,40.13018,-75.331629,42091
5297714,McKinley Ave,19401,Jeffersonville,PA,40.13018,-75.331629,42091
5297714,McKinley Ave,19401,Swedeland,PA,40.13018,-75.331629,42091
5297714,McKinley Ave,19401,Trooper,PA,40.13018,-75.331629,42091
5297714,McKinley Ave,19401,West Norriton,PA,40.13018,-75.331629,42091
5119287,McKinley Ave,19605,Reading,PA,40.404942,-75.941603,42011
5119287,McKinley Ave,19605,Laureldale,PA,40.388149,-75.917985,42011
5119287,McKinley Ave,19605,Berkley,PA,40.42926,-75.934375,42011
5119287,McKinley Ave,19605,Bernharts,PA,40.379168,-75.909834,42011
5119287,McKinley Ave,19605,College Heights,PA,40.39791,-75.943197,42011
5119287,McKinley Ave,19605,Frush Valley,PA,40.397038,-75.909651,42011
5119287,McKinley Ave,19605,Hyde Park,PA,40.377315,-75.925208,42011
5119287,McKinley Ave,19605,Hyde Villa,PA,40.376992,-75.929847,42011
5119287,McKinley Ave,19605,Leinbachs,PA,40.39791,-75.943197,42011
5119287,McKinley Ave,19605,Ontelaunee,PA,40.417038,-75.944376,42011
5119287,McKinley Ave,19605,River View Park,PA,40.392593,-75.958822,42011
5119287,McKinley Ave,19605,Tuckerton,PA,40.404815,-75.936875,42011
5114923,McKinley Ave,19609,Reading,PA,40.327992,-75.990807,42011
5114923,McKinley Ave,19609,West Lawn,PA,40.329815,-75.994381,42011
5114923,McKinley Ave,19609,Lincoln Park,PA,40.314815,-75.985491,42011
5114923,McKinley Ave,19609,Springmont,PA,40.326481,-75.999659,42011
5114923,McKinley Ave,19609,West Wyomissing,PA,40.324537,-75.99077,42011
5114923,McKinley Ave,19609,Whitfield,PA,40.335926,-76.006049,42011
5114923,McKinley Ave,19609,Wyomissing Hills,PA,40.328313,-75.997285,42011
1074343,McKinley Ave,19703,Claymont,DE,39.80379,-75.45814,10003
1074343,McKinley Ave,19703,Ashbourne Hills,DE,39.809835,-75.467697,10003
1074343,McKinley Ave,19703,Brandywine Estates,DE,39.801513,-75.453853,10003
1074343,McKinley Ave,19703,Radnor Green,DE,39.808446,-75.472697,10003
1074343,McKinley Ave,19703,Rolling Park,DE,39.787613,-75.470474,10003
1074343,McKinley Ave,19703,Stockdale,DE,39.800113,-75.457974,10003
1074343,McKinley Ave,19703,Worthland,DE,39.808446,-75.44964,10003
1083257,McKinley Ave,19971,Rehoboth Beach,DE,38.71678,-75.07601,10005
1083257,McKinley Ave,19971,Dewey Beach,DE,38.69289,-75.074625,10005
1083257,McKinley Ave,19971,Midway,DE,38.728168,-75.129349,10005
1083257,McKinley Ave,19971,Henlopen Acres,DE,38.729834,-75.086292,10005
1083257,McKinley Ave,19971,Indian Beach,DE,38.685668,-75.073236,10005
1083257,McKinley Ave,19971,North Shores,DE,38.736223,-75.084347,10005
1083257,McKinley Ave,19971,Seabreeze,DE,38.695945,-75.08157,10005
6561094,McKinley Ave,20110,Manassas,VA,38.749207,-77.487762,51683
2732792,McKinley Ave,21502,Cumberland,MD,39.59915,-78.844425,24001
2732792,McKinley Ave,21502,Cresaptown,MD,39.592867,-78.833354,24001
2732792,McKinley Ave,21502,Allegany Grove,MD,39.640088,-78.828076,24001
2732792,McKinley Ave,21502,Bel Air,MD,39.573145,-78.849744,24001
2732792,McKinley Ave,21502,Bowling Green,MD,39.623699,-78.804464,24001
2732792,McKinley Ave,21502,Cresaptown-Bel Air,MD,39.589344,-78.856184,24001
2732792,McKinley Ave,21502,Homewood,MD,39.674531,-78.793908,24001
2732792,McKinley Ave,21502,La Vale,MD,39.655643,-78.810576,24001
2732792,McKinley Ave,21502,Locust Grove,MD,39.675365,-78.787797,24001
2732792,McKinley Ave,21502,Narrows Park,MD,39.666754,-78.800297,24001
2732792,McKinley Ave,21502,Potomac Park,MD,39.611755,-78.805853,24001
2732792,McKinley Ave,21502,South Cumberland,MD,39.632588,-78.755852,24001
6551679,McKinley Ave,23324,Chesapeake,VA,36.802097,-76.273934,51550
6551679,McKinley Ave,23324,Portlock,VA,36.785148,-76.27744,51550
6551679,McKinley Ave,23324,Avalon,VA,36.806259,-76.275218,51550
6551679,McKinley Ave,23324,Edmonds Corner,VA,36.791815,-76.260495,51550
6551679,McKinley Ave,23324,West Munden,VA,36.807092,-76.256328,51550
6575717,McKinley Ave,23434,Suffolk,VA,36.704592,-76.636158,51800
6575717,McKinley Ave,23434,Beamon,VA,36.795149,-76.527449,51800
6575717,McKinley Ave,23434,Bennetts Harbor,VA,36.703003,-76.592105,51800
6575717,McKinley Ave,23434,Elephant Fork,VA,36.759316,-76.586896,51800
6575717,McKinley Ave,23434,Everets,VA,36.839316,-76.625509,51800
6575717,McKinley Ave,23434,Kilby,VA,36.732094,-76.629119,51800
6575717,McKinley Ave,23434,Kings Fork,VA,36.78015,-76.624675,51800
6575717,McKinley Ave,23434,Lummis,VA,36.695151,-76.701067,51800
6575717,McKinley Ave,23434,Magnolia,VA,36.745983,-76.540505,51800
6575717,McKinley Ave,23434,Myrtle,VA,36.772927,-76.6919,51800
6575717,McKinley Ave,23434,Nansemond,VA,36.767094,-76.530782,51800
6575717,McKinley Ave,23434,Nansemond Shores,VA,36.703003,-76.592105,51800
6575717,McKinley Ave,23434,Nurney,VA,36.642373,-76.613841,51800
6575717,McKinley Ave,23434,Nurneysville,VA,36.655984,-76.637453,51800
6575717,McKinley Ave,23434,Palmyra,VA,36.759872,-76.590785,51800
6575717,McKinley Ave,23434,Providence Church,VA,36.784038,-76.633009,51800
6575717,McKinley Ave,23434,Sadler Heights,VA,36.765149,-76.591063,51800
6575717,McKinley Ave,23434,Wilroy,VA,36.786538,-76.533561,51800
6547589,McKinley Ave,24201,Bristol,VA,36.613815,-82.176238,51520
6547589,McKinley Ave,24201,Barytes,VA,36.622051,-82.157355,51191
6547589,McKinley Ave,24201,Benham,VA,36.610715,-82.17005,51191
6547589,McKinley Ave,24201,Burson Place,VA,36.610715,-82.17005,51191
6547589,McKinley Ave,24201,Craigs Mills,VA,36.610715,-82.17005,51191
6547589,McKinley Ave,24201,Evergreen Hills,VA,36.610715,-82.17005,51191
6547589,McKinley Ave,24201,Fleenors,VA,36.610715,-82.17005,51191
6547589,McKinley Ave,24201,Goose Pimple Junction,VA,36.610715,-82.17005,51191
6547589,McKinley Ave,24201,High Meadows,VA,36.610715,-82.17005,51191
6547589,McKinley Ave,24201,Hilander Park,VA,36.610715,-82.17005,51191
6547589,McKinley Ave,24201,Ketron,VA,36.610715,-82.17005,51191
6547589,McKinley Ave,24201,Kingtown,VA,36.602329,-82.167355,51520
6547589,McKinley Ave,24201,Leonard,VA,36.610715,-82.17005,51191
6547589,McKinley Ave,24201,Lime Hill,VA,36.610715,-82.17005,51191
6547589,McKinley Ave,24201,Malcolm,VA,36.610715,-82.17005,51191
6547589,McKinley Ave,24201,Parkwood Estates,VA,36.610715,-82.17005,51191
6547589,McKinley Ave,24201,Phillip,VA,36.610715,-82.17005,51191
6547589,McKinley Ave,24201,Preston Hills,VA,36.610715,-82.17005,51191
6547589,McKinley Ave,24201,Rocktown,VA,36.610715,-82.17005,51191
6547589,McKinley Ave,24201,Spring Garden,VA,36.610662,-82.182633,51520
6547589,McKinley Ave,24201,Three Spring,VA,36.610715,-82.17005,51191
6547589,McKinley Ave,24201,Wallace,VA,36.610715,-82.17005,51191
6761350,McKinley Ave,24740,Princeton,WV,37.379876,-81.117475,54055
6761350,McKinley Ave,24740,Elgood,WV,37.399565,-80.931195,54055
6761350,McKinley Ave,24740,Gardner,WV,37.42373,-81.074258,54055
6761350,McKinley Ave,24740,Hardy,WV,37.310397,-81.027587,54055
6761350,McKinley Ave,24740,Hatcher,WV,37.365953,-80.978141,54055
6761350,McKinley Ave,24740,Ingleside,WV,37.314841,-81.052311,54055
6761350,McKinley Ave,24740,Lilly Grove,WV,37.371785,-81.070646,54055
6761350,McKinley Ave,24740,Lovern,WV,37.434287,-80.875359,54055
6761350,McKinley Ave,24740,New Hope,WV,37.339006,-81.166484,54055
6761350,McKinley Ave,24740,Willowton,WV,37.34901,-80.886191,54055
6748744,McKinley Ave,25015,Belle,WV,38.232406,-81.502399,54039
6748744,McKinley Ave,25015,Shrewsbury,WV,38.206214,-81.471505,54039
6748744,McKinley Ave,25015,Diamond,WV,38.214825,-81.516506,54039
6748744,McKinley Ave,25015,Dupont City,WV,38.246135,-81.497256,54039
6748744,McKinley Ave,25015,Lower Belle,WV,38.252879,-81.564286,54039
6748744,McKinley Ave,25015,Witcher,WV,38.22538,-81.515951,54039
6749705,McKinley Ave,25177,Saint Albans,WV,38.38565,-81.83624,54039
6749705,McKinley Ave,25177,Amandaville,WV,38.397315,-81.855964,54039
6749705,McKinley Ave,25177,Ferrell,WV,38.352872,-81.833462,54039
6749705,McKinley Ave,25177,Jefferson,WV,38.375372,-81.780406,54039
6749705,McKinley Ave,25177,Scary,WV,38.367284,-81.848331,54079
6749705,McKinley Ave,25177,Virginia Heights,WV,38.385926,-81.851519,54039
6747484,McKinley Ave,25314,Charleston,WV,38.32925,-81.665927,54039
6747484,McKinley Ave,25314,Brounland,WV,38.308045,-81.640231,54039
6747484,McKinley Ave,25314,Grippe,WV,38.308045,-81.640231,54039
6747484,McKinley Ave,25314,Lico,WV,38.308045,-81.640231,54039
6747484,McKinley Ave,25314,Loudendale,WV,38.303987,-81.652901,54039
6747484,McKinley Ave,25314,Olcott,WV,38.308045,-81.640231,54039
6747484,McKinley Ave,25314,Ruth,WV,38.308045,-81.640231,54039
6747484,McKinley Ave,25314,South Hills,WV,38.341764,-81.643735,54039
6787494,McKinley Ave,26104,Parkersburg,WV,39.28037,-81.493574,54107
6787494,McKinley Ave,26104,North Parkersburg,WV,39.287853,-81.532901,54107
6742465,McKinley Ave,26301,Clarksburg,WV,39.287434,-80.341883,54033
6742465,McKinley Ave,26301,Stonewood,WV,39.250924,-80.312311,54033
6742465,McKinley Ave,26301,Adamston,WV,39.290645,-80.357868,54033
6742465,McKinley Ave,26301,Arbutus Park,WV,39.266479,-80.3237,54033
6742465,McKinley Ave,26301,Arlington,WV,39.308422,-80.346756,54033
6742465,McKinley Ave,26301,Broad Oaks,WV,39.273701,-80.328423,54033
6742465,McKinley Ave,26301,Chiefton,WV,39.2962,-80.420925,54033
6742465,McKinley Ave,26301,Custer Addition,WV,39.26009,-80.360646,54033
6742465,McKinley Ave,26301,Despard,WV,39.288701,-80.305922,54033
6742465,McKinley Ave,26301,East View,WV,39.269257,-80.312311,54033
6742465,McKinley Ave,26301,Edgewood,WV,39.303422,-80.353701,54033
6742465,McKinley Ave,26301,Glen Elk,WV,39.285089,-80.338701,54033
6742465,McKinley Ave,26301,Glen Falls,WV,39.307867,-80.325367,54033
6742465,McKinley Ave,26301,Gore,WV,39.314533,-80.352034,54033
6742465,McKinley Ave,26301,Katy Lick,WV,39.317588,-80.423425,54033
6742465,McKinley Ave,26301,Liberty,WV,39.288978,-80.37898,54033
6742465,McKinley Ave,26301,Montpelier,WV,39.280923,-80.325089,54033
6742465,McKinley Ave,26301,North View,WV,39.295367,-80.350923,54033
6742465,McKinley Ave,26301,Nutter Fort,WV,39.263423,-80.319811,54033
6742465,McKinley Ave,26301,Sardis,WV,39.337588,-80.417869,54033
6742465,McKinley Ave,26301,Stealey,WV,39.279256,-80.359535,54033
6742465,McKinley Ave,26301,Summit Park,WV,39.281756,-80.310367,54033
6742465,McKinley Ave,26301,Sun Valley,WV,39.277311,-80.437315,54033
6781251,McKinley Ave,26362,Harrisville,WV,39.145318,-81.034061,54085
6781251,McKinley Ave,26362,Mahone,WV,39.109249,-81.074556,54085
6781251,McKinley Ave,26362,Cantwell,WV,39.13258,-81.131224,54085
6781251,McKinley Ave,26362,Five Forks,WV,39.176471,-80.978442,54085
6781251,McKinley Ave,26362,Mellin,WV,39.12258,-81.170947,54085
6781251,McKinley Ave,26362,Prunty,WV,39.107305,-81.005387,54085
6781251,McKinley Ave,26362,Rutherford,WV,39.150635,-81.170669,54085
6781251,McKinley Ave,26362,Washburn,WV,39.142304,-81.046777,54085
6765095,McKinley Ave,26505,Morgantown,WV,39.649954,-79.943818,54061
6765095,McKinley Ave,26505,Little Falls,WV,39.649954,-79.943818,54061
6765095,McKinley Ave,26505,Star City,WV,39.658414,-79.986453,54061
6765095,McKinley Ave,26505,Westover,WV,39.649954,-79.943818,54061
6765095,McKinley Ave,26505,Arnettsville,WV,39.649954,-79.943818,54061
6765095,McKinley Ave,26505,Baker Ridge,WV,39.67397,-79.93201,54061
6765095,McKinley Ave,26505,Brookhaven,WV,39.649954,-79.943818,54061
6765095,McKinley Ave,26505,Browns Mill,WV,39.649954,-79.943818,54077
6765095,McKinley Ave,26505,Cheat Neck,WV,39.649954,-79.943818,54061
6765095,McKinley Ave,26505,Chestnut Ridge,WV,39.649248,-79.941729,54061
6765095,McKinley Ave,26505,Crown,WV,39.649954,-79.943818,54061
6765095,McKinley Ave,26505,Easton,WV,39.649954,-79.943818,54061
6765095,McKinley Ave,26505,Edna,WV,39.649954,-79.943818,54061
6765095,McKinley Ave,26505,Evansdale,WV,39.649248,-79.96423,54061
6765095,McKinley Ave,26505,Fairmor,WV,39.649954,-79.943818,54061
6765095,McKinley Ave,26505,Georgetown,WV,39.649954,-79.943818,54061
6765095,McKinley Ave,26505,Greer,WV,39.649954,-79.943818,54061
6765095,McKinley Ave,26505,Gum Spring,WV,39.649954,-79.943818,54061
6765095,McKinley Ave,26505,Halleck,WV,39.649954,-79.943818,54061
6765095,McKinley Ave,26505,Harmony Grove,WV,39.649954,-79.943818,54061
6765095,McKinley Ave,26505,Hilderbrand,WV,39.649954,-79.943818,54061
6765095,McKinley Ave,26505,Laurel Point,WV,39.649954,-79.943818,54061
6765095,McKinley Ave,26505,Morgan Heights,WV,39.649954,-79.943818,54061
6765095,McKinley Ave,26505,National,WV,39.649954,-79.943818,54061
6765095,McKinley Ave,26505,Pierpont,WV,39.649954,-79.943818,54061
6765095,McKinley Ave,26505,Richard,WV,39.649954,-79.943818,54061
6765095,McKinley Ave,26505,Ridgedale,WV,39.649954,-79.943818,54061
6765095,McKinley Ave,26505,Ringgold,WV,39.649954,-79.943818,54061
6765095,McKinley Ave,26505,Riverside,WV,39.649954,-79.943818,54061
6765095,McKinley Ave,26505,Rock Forge,WV,39.649954,-79.943818,54061
6765095,McKinley Ave,26505,Smithtown,WV,39.649954,-79.943818,54061
6765095,McKinley Ave,26505,South Hills,WV,39.649954,-79.943818,54061
6765095,McKinley Ave,26505,Stewartstown,WV,39.649954,-79.943818,54061
6765095,McKinley Ave,26505,Suncrest,WV,39.655081,-79.974508,54061
6765095,McKinley Ave,26505,Sunset Beach,WV,39.649954,-79.943818,54061
6765095,McKinley Ave,26505,The Flatts,WV,39.652303,-79.963674,54061
6765095,McKinley Ave,26505,The Mileground,WV,39.642581,-79.930617,54061
6765095,McKinley Ave,26505,Triune,WV,39.649954,-79.943818,54061
6765095,McKinley Ave,26505,Tyrone,WV,39.649954,-79.943818,54061
6765095,McKinley Ave,26505,Uffington,WV,39.649954,-79.943818,54061
6765095,McKinley Ave,26505,Van Voorhis,WV,39.649954,-79.943818,54061
6765095,McKinley Ave,26505,West Sabraton,WV,39.616749,-79.928118,54061
4508843,McKinley Ave,27834,Greenville,NC,35.631003,-77.381019,37147
4508843,McKinley Ave,27834,Bells Fork,NC,35.657563,-77.380045,37147
4508843,McKinley Ave,27834,Black Jack,NC,35.657563,-77.380045,37147
4508843,McKinley Ave,27834,Bruce,NC,35.673215,-77.483858,37147
4508843,McKinley Ave,27834,Frog Level,NC,35.572106,-77.442189,37147
4508843,McKinley Ave,27834,Pactolus,NC,35.628495,-77.21746,37147
4508843,McKinley Ave,27834,Rock Spring,NC,35.63266,-77.444968,37147
4508843,McKinley Ave,27834,Shelmerdine,NC,35.657563,-77.380045,37147
4418951,McKinley Ave,27910,Ahoskie,NC,36.339311,-76.990498,37091
4418951,McKinley Ave,27910,Union,NC,36.333766,-77.024127,37091
4418951,McKinley Ave,27910,Earley,NC,36.257378,-77.027459,37091
4418951,McKinley Ave,27910,Fraziers Crossroads,NC,36.306544,-77.02496,37091
4418951,McKinley Ave,27910,Menola,NC,36.339044,-77.128852,37091
4418951,McKinley Ave,27910,Pleasant Plains,NC,36.349599,-76.980237,37091
4418951,McKinley Ave,27910,Poor Town,NC,36.280433,-77.025238,37091
4418951,McKinley Ave,27910,Saint John,NC,36.290066,-76.993185,37091
4517658,McKinley Ave,28345,Hamlet,NC,34.937085,-79.649111,37153
4517658,McKinley Ave,28345,Dobbins Heights,NC,34.904877,-79.692277,37153
4517658,McKinley Ave,28345,New Town,NC,34.876822,-79.695056,37153
4517658,McKinley Ave,28345,Osborne,NC,34.873551,-79.670637,37153
4517658,McKinley Ave,28345,Steen Town,NC,34.871267,-79.653109,37153
4328260,McKinley Ave,28562,New Bern,NC,35.116959,-77.190548,37049
4328260,McKinley Ave,28562,Clark,NC,35.145994,-77.159952,37049
4426687,McKinley Ave,28625,Statesville,NC,35.868681,-80.890285,37097
1585161,McKinley Ave,30291,Union City,GA,33.573098,-84.551011,13121
1475220,McKinley Ave,31750,Fitzgerald,GA,31.748753,-83.235412,13017
1475220,McKinley Ave,31750,Abba,GA,31.75685,-83.370436,13155
1475220,McKinley Ave,31750,Osierfield,GA,31.667133,-83.115984,13155
1475220,McKinley Ave,31750,Queensland,GA,31.799073,-83.236265,13017
1475220,McKinley Ave,31750,Westwood,GA,31.734907,-83.292378,13017
1113731,McKinley Ave,32931,Cocoa Beach,FL,28.325685,-80.623424,12009
1232343,McKinley Ave,33598,Wimauma,FL,27.73383,-82.297468,12057
1221317,McKinley Ave,33852,Lake Placid,FL,27.336002,-81.36628,12055
1259642,McKinley Ave,33901,Fort Myers,FL,26.621074,-81.878139,12071
1259642,McKinley Ave,33901,Fort Myers Villas,FL,26.621074,-81.878139,12071
1259642,McKinley Ave,33901,Page Park,FL,26.621074,-81.878139,12071
1259642,McKinley Ave,33901,Pine Island Center,FL,26.621074,-81.878139,12071
1259642,McKinley Ave,33901,Pine Manor,FL,26.621074,-81.878139,12071
1259642,McKinley Ave,33901,Punta Rassa,FL,26.621074,-81.878139,12071
1259642,McKinley Ave,33901,San Carlos Park,FL,26.621074,-81.878139,12071
1259642,McKinley Ave,33901,Shell Point Village,FL,26.621074,-81.878139,12071
1264999,McKinley Ave,33936,Lehigh Acres,FL,26.593573,-81.661922,12071
1259737,McKinley Ave,33972,Lehigh Acres,FL,26.64928,-81.616279,12071
1163815,McKinley Ave,34266,Arcadia,FL,27.186075,-81.866661,12027
1163815,McKinley Ave,34266,Lake Suzy,FL,27.191071,-81.823844,12027
9828,McKinley Ave,35034,Brent,AL,32.93735,-87.16472,01007
9828,McKinley Ave,35034,Ellards,AL,32.911122,-87.271681,01105
9828,McKinley Ave,35034,Harrisburg,AL,32.875959,-87.224442,01007
9828,McKinley Ave,35034,Pondville,AL,32.905125,-87.311111,01007
82199,McKinley Ave,35630,Florence,AL,34.82298,-87.661652,01077
82199,McKinley Ave,35630,North Florence,AL,34.818421,-87.680584,01077
49352,McKinley Ave,35904,Gadsden,AL,34.075012,-85.987949,01055
49352,McKinley Ave,35904,Alabama City,AL,34.022319,-86.045529,01055
118058,McKinley Ave,36107,Montgomery,AL,32.380587,-86.280718,01101
118058,McKinley Ave,36107,Capitol Heights,AL,32.38236,-86.275524,01101
110452,McKinley Ave,36608,Mobile,AL,30.681503,-88.300213,01097
110452,McKinley Ave,36608,Spring Hill,AL,30.698523,-88.138891,01097
84467,McKinley Ave,36830,Auburn,AL,32.547542,-85.468222,01081
3408610,McKinley Ave,38950,Philipp,MS,33.75762,-90.20425,28135
3408610,McKinley Ave,38950,Macel,MS,33.733165,-90.201369,28135
3345382,McKinley Ave,39204,Jackson,MS,32.278603,-90.206753,28049
3354922,McKinley Ave,39567,Pascagoula,MS,30.365446,-88.540115,28059
3354922,McKinley Ave,39567,Big Point,MS,30.365446,-88.540115,28059
3354922,McKinley Ave,39567,Helena,MS,30.365446,-88.540115,28059
3354922,McKinley Ave,39567,Orange Grove,MS,30.365446,-88.540115,28059
3354922,McKinley Ave,39567,Pecan,MS,30.365446,-88.540115,28059
3354922,McKinley Ave,39567,Three Rivers,MS,30.365446,-88.540115,28059
3354922,McKinley Ave,39567,Wade,MS,30.365446,-88.540115,28059
2457625,McKinley Ave,40217,Louisville,KY,38.21787,-85.739861,21111
2408835,McKinley Ave,40422,Danville,KY,37.636006,-84.849682,21021
2408835,McKinley Ave,40422,Atoka,KY,37.650075,-84.862175,21021
2408835,McKinley Ave,40422,Baughman Heights,KY,37.632022,-84.772448,21021
2408835,McKinley Ave,40422,Beverly Hills,KY,37.6448,-84.759392,21021
2408835,McKinley Ave,40422,Caldwell Manor,KY,37.658133,-84.781893,21021
2408835,McKinley Ave,40422,Clifton,KY,37.649523,-84.688,21021
2408835,McKinley Ave,40422,Faulconer,KY,37.707022,-84.777726,21021
2408835,McKinley Ave,40422,Green Acres,KY,37.654244,-84.760503,21021
2408835,McKinley Ave,40422,Little Needmore,KY,37.657856,-84.726613,21021
2408835,McKinley Ave,40422,Needmore,KY,37.651742,-84.877731,21021
2408835,McKinley Ave,40422,Shelby City,KY,37.58341,-84.779115,21021
2408835,McKinley Ave,40422,West Danville,KY,37.644799,-84.790227,21021
2408835,McKinley Ave,40422,Wilsonville,KY,37.594242,-84.877453,21021
2530410,McKinley Ave,40701,Corbin,KY,36.854371,-84.184688,21235
2530410,McKinley Ave,40701,Walden,KY,36.845918,-84.167712,21235
2530410,McKinley Ave,40701,Dortha,KY,36.993421,-84.104654,21125
2530410,McKinley Ave,40701,Faber,KY,36.873697,-84.130211,21235
2530410,McKinley Ave,40701,North Corbin,KY,36.960643,-84.093265,21121
4754218,McKinley Ave,43050,Mount Vernon,OH,40.37066,-82.481346,39083
4754218,McKinley Ave,43050,Academia,OH,40.413673,-82.468218,39083
4754218,McKinley Ave,43050,Amity,OH,40.470896,-82.378495,39083
4754218,McKinley Ave,43050,Bangs,OH,40.352285,-82.552387,39083
4754218,McKinley Ave,43050,Brandon,OH,40.312285,-82.509052,39083
4754218,McKinley Ave,43050,Green Valley,OH,40.425062,-82.578223,39083
4754218,McKinley Ave,43050,North Mount Vernon,OH,40.406173,-82.477385,39083
4762121,McKinley Ave,43055,Newark,OH,40.119897,-82.377784,39089
4762121,McKinley Ave,43055,Chatham,OH,40.157564,-82.453491,39089
4762121,McKinley Ave,43055,Claylick,OH,40.119897,-82.377784,39089
4762121,McKinley Ave,43055,Fallsburg,OH,40.119897,-82.377784,39089
4762121,McKinley Ave,43055,Fleatown,OH,40.119897,-82.377784,39089
4762121,McKinley Ave,43055,Frampton,OH,40.119897,-82.377784,39089
4762121,McKinley Ave,43055,Hanover,OH,40.079789,-82.26098,39089
4762121,McKinley Ave,43055,Hickman,OH,40.149789,-82.309595,39089
4762121,McKinley Ave,43055,Marne,OH,40.071177,-82.309316,39089
4762121,McKinley Ave,43055,Reform,OH,40.136734,-82.250147,39089
4762121,McKinley Ave,43055,Toboso,OH,40.119897,-82.377784,39089
4762121,McKinley Ave,43055,Vanatta,OH,40.125898,-82.429322,39089
4696458,McKinley Ave,43130,Lancaster,OH,39.68965,-82.609282,39045
4696458,McKinley Ave,43130,Clearport,OH,39.622564,-82.680167,39045
4696458,McKinley Ave,43130,Delmont,OH,39.682842,-82.680722,39045
4696458,McKinley Ave,43130,Dumontville,OH,39.777286,-82.616275,39045
4696458,McKinley Ave,43130,Hamburg,OH,39.654509,-82.660721,39045
4696458,McKinley Ave,43130,Hooker,OH,39.747564,-82.659888,39045
4696458,McKinley Ave,43130,Revenge,OH,39.603398,-82.651832,39045
4696458,McKinley Ave,43130,Royalton,OH,39.727564,-82.76656,39045
4698624,McKinley Ave,43160,Washington Court House,OH,39.536986,-83.455012,39047
4698624,McKinley Ave,43160,Eber,OH,39.57284,-83.471307,39047
4698624,McKinley Ave,43160,Good Hope,OH,39.526516,-83.441323,39047
4698624,McKinley Ave,43160,Jasper Mills,OH,39.518673,-83.520475,39047
4698624,McKinley Ave,43160,Jonesboro,OH,39.530062,-83.479363,39047
4698624,McKinley Ave,43160,New Martinsburg,OH,39.39673,-83.463806,39047
4698624,McKinley Ave,43160,Octa,OH,39.526516,-83.441323,39047
4698624,McKinley Ave,43160,Pancoastburg,OH,39.624506,-83.26547,39047
4698624,McKinley Ave,43160,Parrott,OH,39.614228,-83.531587,39047
4698624,McKinley Ave,43160,Rock Mills,OH,39.526516,-83.441323,39047
4698624,McKinley Ave,43160,South Plymouth,OH,39.580062,-83.586588,39047
4698624,McKinley Ave,43160,Staunton,OH,39.475341,-83.483252,39047
4777100,McKinley Ave,43605,Toledo,OH,41.652548,-83.508482,39095
4647638,McKinley Ave,43719,Bethesda,OH,39.996312,-81.065991,39013
4647638,McKinley Ave,43719,Hunter,OH,39.947849,-81.057323,39013
4647638,McKinley Ave,43719,Speidel,OH,40.002015,-81.113437,39013
4725434,McKinley Ave,43722,Buffalo,OH,39.91591,-81.52012,39059
4726320,McKinley Ave,43725,Cambridge,OH,40.02701,-81.582025,39059
4726320,McKinley Ave,43725,Claysville,OH,39.936184,-81.670404,39059
4726320,McKinley Ave,43725,Buckeyeville,OH,39.951461,-81.61318,39059
4726320,McKinley Ave,43725,Cassell,OH,40.01035,-81.656792,39059
4726320,McKinley Ave,43725,Center,OH,40.06396,-81.529009,39059
4726320,McKinley Ave,43725,College Hill,OH,40.040905,-81.647625,39059
4726320,McKinley Ave,43725,Fairdale,OH,40.014794,-81.62068,39059
4726320,McKinley Ave,43725,Indian Camp,OH,40.094516,-81.645679,39059
4816638,McKinley Ave,43731,Crooksville,OH,39.76896,-82.09209,39127
4816638,McKinley Ave,43731,Deavertown,OH,39.734235,-82.037919,39115
4816638,McKinley Ave,43731,Flatiron,OH,39.745346,-82.097643,39127
4816638,McKinley Ave,43731,McLuney,OH,39.740346,-82.102365,39127
4816638,McKinley Ave,43731,Moores Junction,OH,39.725343,-82.061172,39127
4816638,McKinley Ave,43731,Oakfield,OH,39.659236,-82.115978,39127
4816638,McKinley Ave,43731,Rose Farm,OH,39.735902,-82.07792,39115
4816638,McKinley Ave,43731,Sayre,OH,39.684513,-82.058753,39127
4816882,McKinley Ave,43764,New Lexington,OH,39.706051,-82.20614,39127
4816882,McKinley Ave,43764,Bristol,OH,39.668958,-82.227648,39127
4816882,McKinley Ave,43764,Cloverhill,OH,39.776735,-82.163478,39127
4816882,McKinley Ave,43764,Mainsville,OH,39.712291,-82.242093,39127
4816882,McKinley Ave,43764,Redfield,OH,39.788402,-82.168478,39127
4816882,McKinley Ave,43764,Rehoboth,OH,39.74368,-82.194035,39127
4816882,McKinley Ave,43764,Saltillo,OH,39.712341,-82.192529,39127
4816882,McKinley Ave,43764,Wilbren,OH,39.725347,-82.177924,39127
4725435,McKinley Ave,43780,Senecaville,OH,39.9427,-81.458577,39059
4725435,McKinley Ave,43780,Greenwood,OH,39.924794,-81.461786,39059
4861874,McKinley Ave,43832,Newcomerstown,OH,40.33031,-81.571033,39157
4861874,McKinley Ave,43832,Bernice,OH,40.264514,-81.519284,39157
4861874,McKinley Ave,43832,Booth,OH,40.231182,-81.540952,39157
4861874,McKinley Ave,43832,Coalport,OH,40.282848,-81.612343,39157
4861874,McKinley Ave,43832,Peoli,OH,40.227292,-81.438448,39157
4861874,McKinley Ave,43832,Wolf,OH,40.321736,-81.571509,39157
4751233,McKinley Ave,43952,Steubenville,OH,40.406817,-80.662786,39081
4751233,McKinley Ave,43952,Wintersville,OH,40.406817,-80.662786,39081
4751233,McKinley Ave,43952,Alikanna,OH,40.387568,-80.635908,39081
4751233,McKinley Ave,43952,Belvedere,OH,40.406817,-80.662786,39081
4751233,McKinley Ave,43952,Brentwood,OH,40.406817,-80.662786,39061
4751233,McKinley Ave,43952,Overlook Hills,OH,40.406817,-80.662786,39081
4751233,McKinley Ave,43952,Pekin,OH,40.428678,-80.662298,39081
4751233,McKinley Ave,43952,Pleasant Hill,OH,40.420067,-80.658409,39081
4751233,McKinley Ave,43952,Pottery Addition,OH,40.40229,-80.625074,39081
4751233,McKinley Ave,43952,Winterdale,OH,40.406817,-80.662786,39081
4641362,McKinley Ave,44030,Conneaut,OH,41.94756,-80.55424,39007
4641362,McKinley Ave,44030,Amboy,OH,41.927277,-80.615078,39007
4641362,McKinley Ave,44030,Bushnell,OH,41.862833,-80.571464,39007
4641362,McKinley Ave,44030,East Conneaut,OH,41.939778,-80.544796,39007
4641362,McKinley Ave,44030,Farnham,OH,41.900333,-80.571742,39007
4641362,McKinley Ave,44030,Kelloggsville,OH,41.856721,-80.617299,39007
4641362,McKinley Ave,44030,Monroe Center,OH,41.844499,-80.571463,39007
4685309,McKinley Ave,44146,Bedford,OH,41.389054,-81.536842,39035
4685309,McKinley Ave,44146,Bedford Heights,OH,41.416998,-81.527343,39035
4685309,McKinley Ave,44146,Oakwood,OH,41.365333,-81.507896,39035
4685309,McKinley Ave,44146,Walton Hills,OH,41.36561,-81.561232,39035
4787859,McKinley Ave,44212,Brunswick,OH,41.23811,-81.8418,39103
4822293,McKinley Ave,44266,Ravenna,OH,41.163755,-81.172922,39133
4822293,McKinley Ave,44266,Black Horse,OH,41.158945,-81.27316,39133
4822293,McKinley Ave,44266,Campbellsport,OH,41.13589,-81.197323,39133
4822293,McKinley Ave,44266,Charlestown,OH,41.163112,-81.147877,39133
4848854,McKinley Ave,44306,Akron,OH,41.041805,-81.479986,39153
4850781,McKinley Ave,44311,Akron,OH,41.064955,-81.522838,39153
4781591,McKinley Ave,44405,Campbell,OH,41.077708,-80.591894,39099
4860373,McKinley Ave,44444,Newton Falls,OH,41.197392,-80.952731,39155
4860373,McKinley Ave,44444,Braceville,OH,41.22839,-80.954535,39155
4860373,McKinley Ave,44444,McClintocksburg,OH,41.169779,-81.015649,39133
4858113,McKinley Ave,44446,Niles,OH,41.186106,-80.742459,39155
4858113,McKinley Ave,44446,McKinley Heights,OH,41.183669,-80.7173,39155
4783703,McKinley Ave,44509,Youngstown,OH,41.109533,-80.693098,39099
4783703,McKinley Ave,44509,West Side,OH,41.10228,-80.689243,39099
4783837,McKinley Ave,44672,Sebring,OH,40.920492,-81.021736,39099
4672813,McKinley Ave,44820,Bucyrus,OH,40.832674,-82.973876,39033
4672813,McKinley Ave,44820,Brandywine,OH,40.865613,-82.939075,39033
4672813,McKinley Ave,44820,Brokensword,OH,40.906724,-83.016856,39033
4672813,McKinley Ave,44820,New Winchester,OH,40.718947,-82.919073,39033
4672813,McKinley Ave,44820,Ridgeton,OH,40.899779,-82.944909,39033
4652660,McKinley Ave,45013,Hamilton,OH,39.436146,-84.618498,39017
4652660,McKinley Ave,45013,Auburn,OH,39.391166,-84.702172,39017
4652660,McKinley Ave,45013,Bunkerhill,OH,39.417276,-84.723007,39017
4652660,McKinley Ave,45013,Layhigh,OH,39.361722,-84.696061,39017
4652660,McKinley Ave,45013,McGonigle,OH,39.445888,-84.683006,39017
4652660,McKinley Ave,45013,Millville,OH,39.389222,-84.654393,39017
4734410,McKinley Ave,45224,Cincinnati,OH,39.199058,-84.525094,39061
4734410,McKinley Ave,45224,College Hill,OH,39.20228,-84.547167,39061
4734410,McKinley Ave,45224,Brookhill,OH,39.211447,-84.497166,39061
4734410,McKinley Ave,45224,Finneytown,OH,39.200336,-84.520499,39061
4734410,McKinley Ave,45224,Greenfield Village,OH,39.203669,-84.524666,39061
4734410,McKinley Ave,45224,North Hills Estates,OH,39.212003,-84.523833,39061
4792281,McKinley Ave,45356,Piqua,OH,40.123618,-84.228811,39109
4792281,McKinley Ave,45356,Lockington,OH,40.208106,-84.233834,39149
4838396,McKinley Ave,45365,Sidney,OH,40.293558,-84.209198,39149
4838396,McKinley Ave,45365,Hardin,OH,40.286438,-84.242168,39149
4838396,McKinley Ave,45365,Kirkwood,OH,40.216161,-84.197166,39149
4838396,McKinley Ave,45365,Pasco,OH,40.283384,-84.100775,39149
4838396,McKinley Ave,45365,Plattsville,OH,40.232274,-84.07744,39149
4838396,McKinley Ave,45365,Tawawa,OH,40.236163,-84.027717,39149
4662016,McKinley Ave,45505,Springfield,OH,39.906009,-83.7482,39023
4834927,McKinley Ave,45662,Portsmouth,OH,38.793214,-82.930576,39145
4834927,McKinley Ave,45662,New Boston,OH,38.752299,-82.936839,39145
4834927,McKinley Ave,45662,Sciotoville,OH,38.758132,-82.891282,39145
4834927,McKinley Ave,45662,Coles Park,OH,38.782086,-82.918349,39145
4834927,McKinley Ave,45662,Dry Run,OH,38.782086,-82.918349,39145
4834927,McKinley Ave,45662,Eden Park,OH,38.774798,-82.942117,39145
4834927,McKinley Ave,45662,Rosemount,OH,38.786187,-82.979063,39145
4834927,McKinley Ave,45662,Sciotodale,OH,38.754799,-82.868782,39145
4834927,McKinley Ave,45662,Slocums,OH,38.766466,-82.842392,39145
4834927,McKinley Ave,45662,Sugar Grove,OH,38.782086,-82.918349,39145
4834927,McKinley Ave,45662,Twin Valley,OH,38.790353,-82.952396,39145
4834927,McKinley Ave,45662,Valley View,OH,38.782086,-82.918349,39145
4834927,McKinley Ave,45662,West Portsmouth,OH,38.782086,-82.918349,39145
2132764,McKinley Ave,46013,Anderson,IN,40.05668,-85.674976,18095
2062125,McKinley Ave,46041,Frankfort,IN,40.304355,-86.468915,18023
2062125,McKinley Ave,46041,Antioch,IN,40.228093,-86.505836,18023
2062125,McKinley Ave,46041,Avery,IN,40.308925,-86.440556,18023
2062125,McKinley Ave,46041,Beard,IN,40.373648,-86.450555,18023
2062125,McKinley Ave,46041,Cambria,IN,40.365869,-86.559168,18023
2062125,McKinley Ave,46041,Cyclone,IN,40.22837,-86.432501,18023
2062125,McKinley Ave,46041,Geetingsville,IN,40.416425,-86.468609,18023
2062125,McKinley Ave,46041,Jefferson,IN,40.279481,-86.590003,18023
2062125,McKinley Ave,46041,Kentwood,IN,40.276981,-86.489724,18023
2062125,McKinley Ave,46041,Kilmore,IN,40.348647,-86.505556,18023
2062125,McKinley Ave,46041,Manson,IN,40.240037,-86.590282,18023
2062125,McKinley Ave,46041,Mattix Corner,IN,40.344203,-86.566946,18023
2062125,McKinley Ave,46041,Middlefork,IN,40.415592,-86.392497,18023
2062125,McKinley Ave,46041,Moran,IN,40.387536,-86.515278,18023
2062125,McKinley Ave,46041,Wilshire,IN,40.275592,-86.488613,18023
2123759,McKinley Ave,46342,Hobart,IN,41.53226,-87.25504,18089
2123759,McKinley Ave,46342,Ainsworth,IN,41.487815,-87.258646,18089
2123759,McKinley Ave,46342,Deep River,IN,41.475593,-87.223367,18089
2123759,McKinley Ave,46342,New Chicago,IN,41.55837,-87.274481,18089
2074285,McKinley Ave,46516,Elkhart,IN,41.676594,-85.944127,18039
2177894,McKinley Ave,46545,Mishawaka,IN,41.693767,-86.146824,18141
2177790,McKinley Ave,46615,South Bend,IN,41.677046,-86.216105,18141
2177189,McKinley Ave,46617,South Bend,IN,41.682897,-86.238906,18141
2046090,McKinley Ave,46802,Fort Wayne,IN,41.065397,-85.15842,18003
2046452,McKinley Ave,46809,Fort Wayne,IN,41.037097,-85.205071,18003
2046452,McKinley Ave,46809,Waynedale,IN,41.021992,-85.175527,18003
2049429,McKinley Ave,47201,Columbus,IN,39.191447,-85.891338,18005
2049429,McKinley Ave,47201,Bethel Village,IN,39.151996,-85.92471,18005
2049429,McKinley Ave,47201,Burnsville,IN,39.158873,-85.993199,18005
2049429,McKinley Ave,47201,Christiansburg,IN,39.088662,-86.156099,18013
2049429,McKinley Ave,47201,Corn Brook,IN,39.158873,-85.993199,18005
2049429,McKinley Ave,47201,East Columbus,IN,39.201718,-85.901656,18005
2049429,McKinley Ave,47201,Flat Rock Park,IN,39.158873,-85.993199,18005
2049429,McKinley Ave,47201,Forest Park,IN,39.158873,-85.993199,18005
2049429,McKinley Ave,47201,Garden City,IN,39.183385,-85.933324,18005
2049429,McKinley Ave,47201,Grandview Lake,IN,39.152273,-86.04638,18005
2049429,McKinley Ave,47201,Jewell Village,IN,39.158873,-85.993199,18005
2049429,McKinley Ave,47201,Lowell,IN,39.253107,-85.946384,18005
2049429,McKinley Ave,47201,Mount Healthy,IN,39.080607,-86.037765,18005
2049429,McKinley Ave,47201,Newbern,IN,39.158873,-85.993199,18005
2049429,McKinley Ave,47201,Northcliff,IN,39.158873,-85.993199,18005
2049429,McKinley Ave,47201,North Columbus,IN,39.158873,-85.993199,18005
2049429,McKinley Ave,47201,North Gate,IN,39.26394,-85.946383,18005
2049429,McKinley Ave,47201,North Ogilville,IN,39.131996,-86.007768,18005
2049429,McKinley Ave,47201,Nortonsburg,IN,39.158873,-85.993199,18005
2049429,McKinley Ave,47201,Ogilville,IN,39.125885,-86.015268,18005
2049429,McKinley Ave,47201,Parkside,IN,39.158873,-85.993199,18005
2049429,McKinley Ave,47201,Petersville,IN,39.158873,-85.993199,18005
2049429,McKinley Ave,47201,Pikes Peak,IN,39.129217,-86.141378,18013
2049429,McKinley Ave,47201,Riverview Acres,IN,39.158873,-85.993199,18005
2049429,McKinley Ave,47201,Rosstown,IN,39.109219,-85.92943,18005
2049429,McKinley Ave,47201,Saint Louis Crossing,IN,39.158873,-85.993199,18005
2049429,McKinley Ave,47201,Stony Lonesome,IN,39.200884,-86.062216,18005
2049429,McKinley Ave,47201,Twin Crest,IN,39.191447,-85.891338,18005
2049429,McKinley Ave,47201,Walesboro,IN,39.14533,-85.914432,18005
2049429,McKinley Ave,47201,Waymansville,IN,39.158873,-85.993199,18005
2049429,McKinley Ave,47201,Waynesville,IN,39.115052,-85.891651,18005
2114116,McKinley Ave,47591,Vincennes,IN,38.707231,-87.417306,18083
2114116,McKinley Ave,47591,Beal,IN,38.576714,-87.630025,18083
2114116,McKinley Ave,47591,Fritchton,IN,38.680325,-87.423074,18083
2114116,McKinley Ave,47591,Iona,IN,38.548659,-87.471687,18083
2114116,McKinley Ave,47591,Verne,IN,38.636714,-87.429463,18083
3061814,McKinley Ave,48015,Center Line,MI,42.480186,-83.027221,26099
3062686,McKinley Ave,48089,Warren,MI,42.474786,-82.995121,26099
3052025,McKinley Ave,48091,Warren,MI,42.470938,-83.054623,26099
3156373,McKinley Ave,48170,Plymouth,MI,42.366737,-83.489679,26163
3156373,McKinley Ave,48170,Cherry Hill,MI,42.36769,-83.534306,26163
3138114,McKinley Ave,48197,Ypsilanti,MI,42.202139,-83.620494,26161
3138114,McKinley Ave,48197,Rawsonville,MI,42.194034,-83.639984,26161
2994122,McKinley Ave,48507,Flint,MI,42.982076,-83.734004,26049
2995064,McKinley Ave,48529,Burton,MI,42.974427,-83.662853,26049
2980128,McKinley Ave,48625,Harrison,MI,44.005299,-84.85096,26035
2980128,McKinley Ave,48625,Temple,MI,44.030851,-85.028367,26035
3120130,McKinley Ave,48627,Higgins Lake,MI,44.461919,-84.750203,26143
2980643,McKinley Ave,48632,Lake,MI,43.85197,-85.00531,26035
2980643,McKinley Ave,48632,Brinton,MI,43.770304,-85.010306,26073
2980643,McKinley Ave,48632,Moddersville,MI,43.858387,-85.020525,26113
2980643,McKinley Ave,48632,Rabbit Bay,MI,43.858387,-85.020525,26061
2980643,McKinley Ave,48632,Sherman City,MI,43.726693,-85.077253,26073
3120138,McKinley Ave,48653,Roscommon,MI,44.394517,-84.611194,26143
2963126,McKinley Ave,49617,Beulah,MI,44.630634,-86.002509,26019
2980929,McKinley Ave,49632,Falmouth,MI,44.242162,-85.043655,26113
2980929,McKinley Ave,49632,Dolph,MI,44.233349,-84.879198,26113
2980929,McKinley Ave,49632,Prosper,MI,44.242791,-85.033093,26113
2954598,McKinley Ave,49707,Alpena,MI,45.033143,-83.495091,26007
2954598,McKinley Ave,49707,Alpena Junction,MI,45.058624,-83.456087,26007
2954598,McKinley Ave,49707,Cathro,MI,45.158902,-83.554426,26007
2286545,McKinley Ave,50315,Des Moines,IA,41.545107,-93.620917,19153
2288248,McKinley Ave,50321,Des Moines,IA,41.546945,-93.659668,19153
2288289,McKinley Ave,50321,Des Moines,IA,41.546945,-93.659668,19153
2282024,McKinley Ave,51022,Granville,IA,42.98554,-95.87363,19167
2300327,McKinley Ave,51022,Granville,IA,42.98554,-95.87363,19167
2273008,McKinley Ave,51201,Sheldon,IA,43.170886,-95.792885,19141
2273008,McKinley Ave,51201,Ritter,IA,43.244143,-95.822795,19141
2281755,McKinley Ave,51201,Sheldon,IA,43.170886,-95.792885,19141
2281755,McKinley Ave,51201,Ritter,IA,43.244143,-95.822795,19141
2282737,McKinley Ave,51201,Sheldon,IA,43.170886,-95.792885,19141
2282737,McKinley Ave,51201,Ritter,IA,43.244143,-95.822795,19141
2300328,McKinley Ave,51201,Sheldon,IA,43.170886,-95.792885,19141
2300328,McKinley Ave,51201,Ritter,IA,43.244143,-95.822795,19141
2272790,McKinley Ave,51232,Ashton,IA,43.309073,-95.772984,19143
2282382,McKinley Ave,51232,Ashton,IA,43.309073,-95.772984,19143
2282154,McKinley Ave,51238,Hospers,IA,43.07719,-95.938839,19167
2282154,McKinley Ave,51238,Newkirk,IA,43.069984,-95.978073,19167
2300485,McKinley Ave,51238,Hospers,IA,43.07719,-95.938839,19167
2300485,McKinley Ave,51238,Newkirk,IA,43.069984,-95.978073,19167
2272787,McKinley Ave,51243,Little Rock,IA,43.44414,-95.88335,19119
2282514,McKinley Ave,51243,Little Rock,IA,43.44414,-95.88335,19119
2272791,McKinley Ave,51249,Sibley,IA,43.377681,-95.624809,19143
2272791,McKinley Ave,51249,Cloverdale,IA,43.346915,-95.685847,19143
2282528,McKinley Ave,51249,Sibley,IA,43.377681,-95.624809,19143
2282528,McKinley Ave,51249,Cloverdale,IA,43.346915,-95.685847,19143
2299790,McKinley Ave,51537,Harlan,IA,41.667566,-95.29087,19165
2299790,McKinley Ave,51537,Corley,IA,41.5786,-95.330277,19165
2299790,McKinley Ave,51537,Jacksonville,IA,41.645266,-95.149994,19165
2226801,McKinley Ave,52255,Lowden,IA,41.856539,-90.966516,19031
2226801,McKinley Ave,52255,Massillon,IA,41.914742,-90.922648,19031
2305770,McKinley Ave,52501,Ottumwa,IA,41.030933,-92.409827,19179
2305770,McKinley Ave,52501,Highland Center,IA,41.126403,-92.35324,19179
2305770,McKinley Ave,52501,Bladensburg,IA,41.046127,-92.237125,19179
2305770,McKinley Ave,52501,Cliffland,IA,41.035705,-92.43137,19179
2305770,McKinley Ave,52501,Dahlonega,IA,41.058626,-92.369907,19179
2305770,McKinley Ave,52501,Dudley,IA,41.087789,-92.591857,19179
2305770,McKinley Ave,52501,Ottumwa Junction,IA,41.048347,-92.439631,19179
2305770,McKinley Ave,52501,Rutledge,IA,41.061125,-92.421297,19179
2239869,McKinley Ave,52601,Burlington,IA,40.898412,-91.164393,19057
2239869,McKinley Ave,52601,Latty,IA,40.903371,-91.121813,19057
2239869,McKinley Ave,52601,Spring Grove,IA,40.739762,-91.158202,19057
2266066,McKinley Ave,52632,Keokuk,IA,40.3906,-91.38126,19111
2266066,McKinley Ave,52632,Mooar,IA,40.443655,-91.452377,19111
2266066,McKinley Ave,52632,Sandusky,IA,40.464488,-91.387375,19111
2266066,McKinley Ave,52632,Summitville,IA,40.472821,-91.448766,19111
2266455,McKinley Ave,52632,Keokuk,IA,40.3906,-91.38126,19111
2266455,McKinley Ave,52632,Mooar,IA,40.443655,-91.452377,19111
2266455,McKinley Ave,52632,Sandusky,IA,40.464488,-91.387375,19111
2266455,McKinley Ave,52632,Summitville,IA,40.472821,-91.448766,19111
2296166,McKinley Ave,52802,Davenport,IA,41.497582,-90.623887,19163
6929417,McKinley Ave,53027,Hartford,WI,43.357616,-88.319032,55131
6929417,McKinley Ave,53027,Saint Lawrence,WI,43.369723,-88.332875,55131
6929417,McKinley Ave,53027,Thompson,WI,43.258615,-88.370652,55131
6898703,McKinley Ave,53511,Beloit,WI,42.562039,-89.086045,55105
6898703,McKinley Ave,53511,Shopiere,WI,42.554101,-89.094465,55105
6898703,McKinley Ave,53511,Tiffany,WI,42.582514,-88.927053,55105
6898703,McKinley Ave,53511,Christilla Heights,WI,42.528903,-89.072889,55105
6898703,McKinley Ave,53511,Crestview,WI,42.541681,-89.031221,55105
6898703,McKinley Ave,53511,Garden Village,WI,42.554736,-89.029277,55105
6898703,McKinley Ave,53511,Holiday Hills,WI,42.54807,-89.030388,55105
6898703,McKinley Ave,53511,Newark,WI,42.542234,-89.227614,55105
6900396,McKinley Ave,53520,Brodhead,WI,42.61834,-89.37623,55045
6900396,McKinley Ave,53520,Avon,WI,42.543344,-89.331504,55105
6865042,McKinley Ave,54151,Niagara,WI,45.77135,-87.99485,55075
6916655,McKinley Ave,54630,Galesville,WI,44.094809,-91.339528,55121
6916655,McKinley Ave,54630,Centerville,WI,44.121157,-91.373938,55121
6916656,McKinley Ave,54630,Galesville,WI,44.094809,-91.339528,55121
6916656,McKinley Ave,54630,Centerville,WI,44.121157,-91.373938,55121
6831226,McKinley Ave,54701,Eau Claire,WI,44.75653,-91.473097,55035
6831226,McKinley Ave,54701,Caryville,WI,44.751984,-91.514998,55033
6939453,McKinley Ave,54929,Clintonville,WI,44.62053,-88.76232,55135
6939453,McKinley Ave,54929,Buckbee,WI,44.648868,-88.835103,55135
6943567,McKinley Ave,54963,Omro,WI,44.050782,-88.754887,55139
6943567,McKinley Ave,54963,Island Park,WI,44.022759,-88.802334,55139
6943567,McKinley Ave,54963,Reighmoor,WI,44.057483,-88.673723,55139
6943567,McKinley Ave,54963,Rivermoor,WI,44.07276,-88.686222,55139
6943567,McKinley Ave,54963,Zion,WI,44.044195,-88.77909,55139
3277326,McKinley Ave,55734,Eveleth,MN,47.386893,-92.452058,27137
3277326,McKinley Ave,55734,Genoa,MN,47.464372,-92.508795,27137
3277326,McKinley Ave,55734,Leonidas,MN,47.461595,-92.571851,27137
3250172,McKinley Ave,56003,Mankato,MN,44.217193,-94.094192,27103
3250172,McKinley Ave,56003,North Mankato,MN,44.1733,-94.033845,27013
3184601,McKinley Ave,56262,Milan,MN,45.108407,-95.817699,27023
3184601,McKinley Ave,56262,Big Bend City,MN,45.143015,-95.771979,27023
3184601,McKinley Ave,56262,Hagan,MN,45.14857,-95.776146,27023
3184779,McKinley Ave,56265,Montevideo,MN,45.014054,-95.601718,27023
3184779,McKinley Ave,56265,Lac qui Parle,MN,45.000514,-95.906143,27073
3184779,McKinley Ave,56265,Wegdahl,MN,44.889957,-95.645301,27023
3167813,McKinley Ave,56501,Detroit Lakes,MN,46.834262,-95.746871,27005
3167813,McKinley Ave,56501,Lake Eunice,MN,46.74607,-95.969219,27005
3167813,McKinley Ave,56501,Shoreham,MN,46.757459,-95.898939,27005
3167813,McKinley Ave,56501,Westbury,MN,46.917181,-95.90977,27005
3187673,McKinley Ave,56536,Felton,MN,47.077246,-96.503987,27027
3168247,McKinley Ave,56570,Osage,MN,46.923974,-95.362298,27005
3168247,McKinley Ave,56570,Snellman,MN,46.889404,-95.413088,27005
3252338,McKinley Ave,56581,Shelly,MN,47.45833,-96.82028,27107
4615095,McKinley Ave,58201,Grand Forks,ND,47.866638,-97.141144,38035
4615095,McKinley Ave,58201,Grand Forks Air Force Base,ND,47.866638,-97.141144,38035
4627404,McKinley Ave,58444,Goodrich,ND,47.479529,-100.14659,38083
4627405,McKinley Ave,58451,Hurdsfield,ND,47.472804,-99.937233,38103
4619512,McKinley Ave,58576,Underwood,ND,47.445896,-101.21736,38055
3660169,McKinley Ave,59474,Shelby,MT,48.610551,-111.73233,30101
3660169,McKinley Ave,59474,Devon,MT,48.466652,-111.47861,30101
3660169,McKinley Ave,59474,Dunkirk,MT,48.478041,-111.664178,30101
3638952,McKinley Ave,59501,Havre,MT,48.55417,-109.67853,30041
3638952,McKinley Ave,59501,Simpson,MT,48.928619,-110.206043,30041
3657565,McKinley Ave,59701,Butte,MT,45.997895,-112.598765,30093
3657565,McKinley Ave,59701,Walkerville,MT,46.034093,-112.535856,30093
3657565,McKinley Ave,59701,Butte-Silver Bow,MT,46.035044,-112.47572,30093
3657565,McKinley Ave,59701,Centerville,MT,46.022704,-112.549468,30093
3657565,McKinley Ave,59701,Columbia Gardens,MT,46.006593,-112.464185,30093
3657565,McKinley Ave,59701,East Butte,MT,46.011316,-112.496687,30093
3657565,McKinley Ave,59701,Floral Park,MT,45.986038,-112.493631,30093
3657565,McKinley Ave,59701,McQueen,MT,46.020205,-112.495298,30093
3657565,McKinley Ave,59701,Nissler,MT,46.004648,-112.64225,30093
3657565,McKinley Ave,59701,Rocker,MT,46.003259,-112.606137,30093
3657565,McKinley Ave,59701,Silver Bow Park,MT,46.000482,-112.497243,30093
3657565,McKinley Ave,59701,Williamsburg,MT,45.991871,-112.557246,30093
3646635,McKinley Ave,59872,Superior,MT,47.137198,-114.747599,30061
3646635,McKinley Ave,59872,Tarkio,MT,47.02131,-114.739015,30061
1914503,McKinley Ave,60020,Fox Lake,IL,42.39669,-88.1837,17097
1914503,McKinley Ave,60020,Kings Island,IL,42.384188,-88.180918,17097
1936683,McKinley Ave,60034,Hebron,IL,42.455151,-88.430802,17111
1910636,McKinley Ave,60046,Lake Villa,IL,42.381271,-87.999077,17097
1910636,McKinley Ave,60046,Druce Lake,IL,42.371688,-88.002578,17097
1910636,McKinley Ave,60046,Fox Lake Hills,IL,42.408076,-88.131751,17097
1910636,McKinley Ave,60046,Lindenhurst,IL,42.410577,-88.026191,17097
1910636,McKinley Ave,60046,Millburn,IL,42.425854,-88.003968,17097
1910636,McKinley Ave,60046,Third Lake,IL,42.416323,-88.059119,17097
1910636,McKinley Ave,60046,Venetian Village,IL,42.398632,-88.052581,17097
1917394,McKinley Ave,60048,Libertyville,IL,42.28947,-87.957724,17097
1917394,McKinley Ave,60048,Mettawa,IL,42.233357,-87.925906,17097
1912159,McKinley Ave,60060,Mundelein,IL,42.252523,-88.027327,17097
1912159,McKinley Ave,60060,Diamond Lake,IL,42.244468,-88.010076,17097
1912159,McKinley Ave,60060,Indian Creek,IL,42.270156,-88.039275,17097
1912159,McKinley Ave,60060,Ivanhoe,IL,42.278912,-88.042022,17097
1912159,McKinley Ave,60060,Sylvan Lake,IL,42.243913,-88.052855,17097
1915843,McKinley Ave,60085,Waukegan,IL,42.352097,-87.867656,17097
1915843,McKinley Ave,60085,Park City,IL,42.348355,-87.88424,17097
1856644,McKinley Ave,60126,Elmhurst,IL,41.88353,-87.946413,17043
1856644,McKinley Ave,60126,Churchville,IL,41.896843,-87.94124,17043
1856644,McKinley Ave,60126,Yorkfield,IL,41.863364,-87.948396,17043
1895358,McKinley Ave,60134,Geneva,IL,41.88753,-88.30535,17089
1828021,McKinley Ave,60411,Chicago Heights,IL,41.508774,-87.590314,17031
1828021,McKinley Ave,60411,Sauk Village,IL,41.488369,-87.567541,17031
1828021,McKinley Ave,60411,Ford Heights,IL,41.506424,-87.591709,17031
1828021,McKinley Ave,60411,Holbrook,IL,41.538368,-87.636711,17031
1828021,McKinley Ave,60411,Lynwood,IL,41.526424,-87.538652,17031
1828021,McKinley Ave,60411,South Chicago Heights,IL,41.480868,-87.637821,17031
2019245,McKinley Ave,60436,Joliet,IL,41.48843,-88.15716,17197
2019245,McKinley Ave,60436,Rockdale,IL,41.506142,-88.114504,17197
2019245,McKinley Ave,60436,Shorewood,IL,41.486888,-88.129295,17197
1832926,McKinley Ave,60469,Posen,IL,41.628359,-87.687037,17031
2020084,McKinley Ave,60475,Steger,IL,41.47003,-87.63643,17031
1864336,McKinley Ave,60532,Lisle,IL,41.80114,-88.07479,17043
1884189,McKinley Ave,60953,Milford,IL,40.62837,-87.69614,17075
1884189,McKinley Ave,60953,Bryce,IL,40.634481,-87.756697,17075
1884189,McKinley Ave,60953,Schwer,IL,40.660592,-87.788088,17075
1884189,McKinley Ave,60953,Woodworth,IL,40.659758,-87.845867,17075
1795179,McKinley Ave,61008,Belvidere,IL,42.276381,-88.823215,17007
1795179,McKinley Ave,61008,Timberlane,IL,42.334742,-88.861214,17007
1795181,McKinley Ave,61065,Poplar Grove,IL,42.392537,-88.811894,17007
1795181,McKinley Ave,61065,Blaine,IL,42.446962,-88.80316,17007
1881624,McKinley Ave,61443,Kewanee,IL,41.24559,-89.92483,17073
1974969,McKinley Ave,61607,Peoria,IL,40.632085,-89.690349,17143
1974969,McKinley Ave,61607,Bartonville,IL,40.650316,-89.652046,17143
1974969,McKinley Ave,61607,Hollis,IL,40.596705,-89.670103,17143
1974969,McKinley Ave,61607,Limestone,IL,40.627135,-89.685132,17143
1974969,McKinley Ave,61607,Orchard Mines,IL,40.589205,-89.677881,17143
1974969,McKinley Ave,61607,Tuscarora,IL,40.605316,-89.667325,17143
2011287,McKinley Ave,61832,Danville,IL,40.136234,-87.636466,17183
2011287,McKinley Ave,61832,Batestown,IL,40.120036,-87.696412,17183
2011287,McKinley Ave,61832,Grape Creek,IL,40.136234,-87.636466,17183
2011287,McKinley Ave,61832,Hegeler,IL,40.075592,-87.635021,17183
2011287,McKinley Ave,61832,Hillery,IL,40.131147,-87.694467,17183
2011287,McKinley Ave,61832,South Danville,IL,40.115037,-87.637521,17183
2011287,McKinley Ave,61832,Vermilion Heights,IL,40.123648,-87.653355,17183
1812563,McKinley Ave,61920,Charleston,IL,39.499622,-88.160348,17029
1812563,McKinley Ave,61920,Rardin,IL,39.604201,-88.101706,17029
1812563,McKinley Ave,61920,Bushton,IL,39.592256,-88.138651,17029
1812563,McKinley Ave,61920,Hutton,IL,39.412536,-88.084482,17029
1957859,McKinley Ave,62025,Edwardsville,IL,38.841819,-89.877841,17119
1957859,McKinley Ave,62025,Carpenter,IL,38.891991,-89.894266,17119
1957859,McKinley Ave,62025,Fruit,IL,38.830881,-89.862598,17119
1957859,McKinley Ave,62025,Holiday Shores,IL,38.921991,-89.940657,17119
1957859,McKinley Ave,62025,Kuhn Station,IL,38.781992,-89.876487,17119
1957859,McKinley Ave,62025,Leclaire,IL,38.795603,-89.957046,17119
1957859,McKinley Ave,62025,Poag,IL,38.796993,-90.038994,17119
1957859,McKinley Ave,62025,Wanda,IL,38.831391,-89.932326,17119
1968569,McKinley Ave,62056,Litchfield,IL,39.17533,-89.65426,17135
1968569,McKinley Ave,62056,Barnett,IL,39.264493,-89.697315,17135
1968569,McKinley Ave,62056,Honey Bend,IL,39.255326,-89.622869,17135
1968569,McKinley Ave,62056,Hornsby,IL,39.170603,-89.745093,17117
2033135,McKinley Ave,62918,Carterville,IL,37.76005,-89.0773,17199
2033135,McKinley Ave,62918,Blairsville,IL,37.811161,-89.12369,17199
2033135,McKinley Ave,62918,Crainville,IL,37.751995,-89.067854,17199
2033135,McKinley Ave,62918,Dewmaine,IL,37.780606,-89.077021,17199
1793167,McKinley Ave,62988,Tamms,IL,37.239072,-89.269752,17003
1793167,McKinley Ave,62988,Sandusky,IL,37.20255,-89.272303,17003
3623392,McKinley Ave,63110,Saint Louis,MO,38.625401,-90.268132,29510
3592386,McKinley Ave,63119,Saint Louis,MO,38.589302,-90.348116,29189
3592386,McKinley Ave,63119,Webster Groves,MO,38.592553,-90.357339,29189
3592386,McKinley Ave,63119,Lake Junction,MO,38.58845,-90.351341,29189
3592386,McKinley Ave,63119,Rock Hill,MO,38.607553,-90.378451,29189
3592386,McKinley Ave,63119,Shrewsbury,MO,38.59033,-90.336783,29189
3581815,McKinley Ave,63122,Saint Louis,MO,38.578052,-90.42563,29189
3581815,McKinley Ave,63122,Kirkwood,MO,38.583386,-90.406785,29189
3581815,McKinley Ave,63122,Barretts,MO,38.57172,-90.46012,29189
3581815,McKinley Ave,63122,Glendale,MO,38.595886,-90.377062,29189
3581815,McKinley Ave,63122,Meacham Park,MO,38.562553,-90.402341,29189
3581815,McKinley Ave,63122,Oakland,MO,38.576442,-90.385673,29189
3581815,McKinley Ave,63122,Osage Hill,MO,38.568387,-90.447898,29189
3581815,McKinley Ave,63122,Warson Woods,MO,38.607275,-90.383451,29189
3581815,McKinley Ave,63122,Windsor Springs,MO,38.56672,-90.411785,29189
3615393,McKinley Ave,63383,Warrenton,MO,38.808454,-91.2166,29219
3615393,McKinley Ave,63383,Pendleton,MO,38.827267,-91.235154,29219
3615393,McKinley Ave,63383,Truesdale,MO,38.811714,-91.130426,29219
3438525,McKinley Ave,63940,Fisk,MO,36.782328,-90.207712,29023
3438525,McKinley Ave,63940,Ash Hill,MO,36.77561,-90.233159,29023
3438849,McKinley Ave,63940,Fisk,MO,36.782328,-90.207712,29023
3438849,McKinley Ave,63940,Ash Hill,MO,36.77561,-90.233159,29023
3524579,McKinley Ave,64067,Lexington,MO,39.14086,-93.849284,29107
3567366,McKinley Ave,64085,Richmond,MO,39.341906,-93.984387,29177
3567366,McKinley Ave,64085,Dockery,MO,39.361122,-93.988553,29177
3567366,McKinley Ave,64085,Millville,MO,39.40529,-93.917995,29177
3567366,McKinley Ave,64085,Morton,MO,39.319458,-93.860774,29177
3504443,McKinley Ave,64129,Kansas City,MO,39.046404,-94.498325,29095
3504443,McKinley Ave,64129,Leeds,MO,39.055838,-94.508565,29095
3507860,McKinley Ave,64133,Kansas City,MO,39.032319,-94.469977,29095
3507860,McKinley Ave,64133,Raytown,MO,39.008617,-94.463564,29095
3565325,McKinley Ave,65270,Moberly,MO,39.425513,-92.428348,29175
3565325,McKinley Ave,65270,Evansville,MO,39.449759,-92.302401,29137
3565325,McKinley Ave,65270,Milton,MO,39.470036,-92.329068,29175
3565325,McKinley Ave,65270,Urbandale,MO,39.395036,-92.44407,29175
3701526,McKinley Ave,68701,Norfolk,NE,42.019977,-97.442989,31119
3701526,McKinley Ave,68701,Enola,NE,41.903895,-97.462828,31119
3668448,McKinley Ave,68869,Ravenna,NE,40.960075,-98.902302,31019
3668448,McKinley Ave,68869,Poole,NE,40.979734,-98.969807,31019
3668448,McKinley Ave,68869,Saint Michael,NE,41.023624,-98.747855,31019
3668852,McKinley Ave,68869,Ravenna,NE,40.960075,-98.902302,31019
3668852,McKinley Ave,68869,Poole,NE,40.979734,-98.969807,31019
3668852,McKinley Ave,68869,Saint Michael,NE,41.023624,-98.747855,31019
2550729,McKinley Ave,71107,Shreveport,LA,32.601593,-93.87377,22017
2550729,McKinley Ave,71107,Dixie,LA,32.692645,-93.834902,22017
2550729,McKinley Ave,71107,Cooper Road,LA,32.543762,-93.814902,22017
2550729,McKinley Ave,71107,Lakeview,LA,32.523207,-93.829347,22017
2550729,McKinley Ave,71107,Sentell,LA,32.648203,-93.79768,22017
2614811,McKinley Ave,71201,Monroe,LA,32.502833,-92.094583,22073
2614811,McKinley Ave,71201,Bosco,LA,32.532695,-92.105168,22073
2614811,McKinley Ave,71201,Corey,LA,32.532695,-92.105168,22021
2614811,McKinley Ave,71201,Fondale,LA,32.532695,-92.105168,22073
2614811,McKinley Ave,71201,Lamkin,LA,32.532695,-92.105168,22073
2614811,McKinley Ave,71201,Pine Grove,LA,32.532695,-92.105168,22073
2614811,McKinley Ave,71201,Town and Country,LA,32.532695,-92.105168,22073
409505,McKinley Ave,72908,Fort Smith,AR,35.321912,-94.402779,05131
4891601,McKinley Ave,73014,Calumet,OK,35.547575,-98.151236,40017
4901193,McKinley Ave,73072,Norman,OK,35.212703,-97.504182,40027
4932742,McKinley Ave,74432,Eufaula,OK,35.318019,-95.588523,40091
4932742,McKinley Ave,74432,Fame,OK,35.362322,-95.645821,40091
4932742,McKinley Ave,74432,Mellette,OK,35.217321,-95.715825,40091
4932742,McKinley Ave,74432,Raiford,OK,35.267877,-95.786939,40091
4932742,McKinley Ave,74432,Vivian,OK,35.289822,-95.71638,40091
4961430,McKinley Ave,74533,Caney,OK,34.208512,-96.197853,40005
4960635,McKinley Ave,74553,Kiowa,OK,34.723584,-95.906795,40121
4927802,McKinley Ave,74834,Chandler,OK,35.647953,-96.871215,40081
4927802,McKinley Ave,74834,Midlothian,OK,35.637287,-96.922525,40081
4927802,McKinley Ave,74834,Warwick,OK,35.685896,-97.004195,40081
6108574,McKinley Ave,75630,Avinger,TX,32.895799,-94.574658,48067
6108574,McKinley Ave,75630,Lassater,TX,32.834025,-94.502699,48315
6108574,McKinley Ave,75630,Orrs,TX,32.842636,-94.524644,48315
6108574,McKinley Ave,75630,Patman,TX,32.955131,-94.572423,48067
6108574,McKinley Ave,75630,Warlock,TX,32.839302,-94.624093,48315
4960636,McKinley Ave,75689,Selman City,TX,32.1826,-94.935456,48401
4960636,McKinley Ave,75689,Turnertown,TX,32.18988,-94.949662,48401
6187844,McKinley Ave,76106,Fort Worth,TX,32.816503,-97.359532,48439
6187844,McKinley Ave,76106,Avondale,TX,32.816503,-97.359532,48439
6181056,McKinley Ave,76164,Fort Worth,TX,32.7811,-97.354585,48439
6142206,McKinley Ave,76475,Strawn,TX,32.693772,-98.509939,48363
6142206,McKinley Ave,76475,Brad,TX,32.751792,-98.507833,48363
6142206,McKinley Ave,76475,Metcalf Gap,TX,32.709849,-98.441442,48363
6108915,McKinley Ave,76856,Mason,TX,30.752875,-99.142096,48319
6108915,McKinley Ave,76856,Hedwigs Hill,TX,30.665737,-99.111997,48319
6108915,McKinley Ave,76856,Hilda,TX,30.586852,-99.114496,48319
6108915,McKinley Ave,76856,Koockville,TX,30.757122,-99.250056,48319
6108915,McKinley Ave,76856,Loyal Valley,TX,30.575741,-99.007827,48319
6108915,McKinley Ave,76856,Streeter,TX,30.7649,-99.376448,48319
6069988,McKinley Ave,77619,Groves,TX,29.941563,-93.916957,48245
5994212,McKinley Ave,77656,Silsbee,TX,30.3491,-94.17796,48199
5812807,McKinley Ave,78210,San Antonio,TX,29.395776,-98.464401,48029
6047378,McKinley Ave,78573,Mission,TX,26.296434,-98.299977,48215
5921776,McKinley Ave,79045,Hereford,TX,34.966095,-102.31309,48117
5921776,McKinley Ave,79045,Westway,TX,34.823952,-102.546321,48117
5943133,McKinley Ave,79930,El Paso,TX,31.809457,-106.464242,48141
916343,McKinley Ave,80027,Louisville,CO,39.950948,-105.159078,08013
916343,McKinley Ave,80027,Superior,CO,39.952763,-105.168598,08013
967394,McKinley Ave,80537,Loveland,CO,40.364469,-105.179966,08069
967394,McKinley Ave,80537,Campion,CO,40.349428,-105.077759,08069
967394,McKinley Ave,80537,Cedar Cove,CO,40.415817,-105.265543,08069
967394,McKinley Ave,80537,Kelim,CO,40.364469,-105.179966,08069
969019,McKinley Ave,80538,Loveland,CO,40.458831,-105.049404,08069
972770,McKinley Ave,80549,Wellington,CO,40.795455,-105.085627,08069
972770,McKinley Ave,80549,Buckeye,CO,40.827205,-105.094976,08069
1003962,McKinley Ave,80621,Fort Lupton,CO,40.107238,-104.801094,08123
1003962,McKinley Ave,80621,Aristocrat Ranchettes,CO,40.10915,-104.76247,08123
1003962,McKinley Ave,80621,Ione,CO,40.148872,-104.810805,08123
1003962,McKinley Ave,80621,Vollmar,CO,40.134983,-104.838862,08123
1003962,McKinley Ave,80621,Wattenberg,CO,40.027762,-104.83664,08123
6949433,McKinley Ave,82431,Lovell,WY,44.83745,-108.38956,56003
6949433,McKinley Ave,82431,Kane,WY,44.843566,-108.202888,56003
6966456,McKinley Ave,82901,Rock Springs,WY,41.634515,-109.149045,56037
6966456,McKinley Ave,82901,Bitter Creek,WY,41.379251,-108.978212,56037
6966456,McKinley Ave,82901,Blairtown,WY,41.573298,-109.230683,56037
6966456,McKinley Ave,82901,Quealy,WY,41.538298,-109.222628,56037
6966456,McKinley Ave,82901,Sage,WY,41.379251,-108.978212,56023
6966456,McKinley Ave,82901,Sparks,CO,41.379251,-108.978212,08081
1747417,McKinley Ave,83201,Pocatello,ID,42.904933,-112.380079,16005
1747417,McKinley Ave,83201,Alameda,ID,42.889914,-112.454146,16005
1747417,McKinley Ave,83201,Portneuf,ID,42.904933,-112.380079,16005
1747417,McKinley Ave,83201,Tyhee,ID,42.904933,-112.380079,16005
1784759,McKinley Ave,83837,Kellogg,ID,47.53826,-116.11933,16079
1784759,McKinley Ave,83837,Bradley,ID,47.546311,-116.160723,16079
1784759,McKinley Ave,83837,Smelter Heights,ID,47.539089,-116.159611,16079
1784759,McKinley Ave,83837,Wardner,ID,47.522701,-116.134055,16079
187180,McKinley Ave,85603,Bisbee,AZ,31.44815,-109.92841,04003
187180,McKinley Ave,85603,Warren,AZ,31.410934,-109.878407,04003
187180,McKinley Ave,85603,Bakerville,AZ,31.422878,-109.887296,04003
187180,McKinley Ave,85603,Don Luis,AZ,31.4026,-109.916741,04003
187180,McKinley Ave,85603,Galena,AZ,31.422044,-109.89313,04003
187180,McKinley Ave,85603,Lowell,AZ,31.427878,-109.893685,04003
187180,McKinley Ave,85603,Saginaw,AZ,31.429266,-109.883407,04003
187180,McKinley Ave,85603,South Bisbee,AZ,31.417044,-109.903685,04003
187180,McKinley Ave,85603,Tintown,AZ,31.414267,-109.898407,04003
4013551,McKinley Ave,87036,Mountainair,NM,34.617468,-106.277208,35057
4013551,McKinley Ave,87036,Abo,NM,34.455898,-106.333071,35057
4013551,McKinley Ave,87036,Manzano,NM,34.646727,-106.345019,35057
4013551,McKinley Ave,87036,Punta de Agua,NM,34.600061,-106.283907,35057
3990637,McKinley Ave,88310,Alamogordo,NM,32.870046,-105.948967,35035
3730488,McKinley Ave,89121,Las Vegas,NV,36.122271,-115.09153,32003
3767598,McKinley Ave,89801,Elko,NV,40.905583,-115.534429,32007
3767598,McKinley Ave,89801,Jiggs,NV,41.247991,-115.761405,32007
3767598,McKinley Ave,89801,Charleston,NV,41.247991,-115.761405,32007
3767598,McKinley Ave,89801,Lee,NV,41.247991,-115.761405,32007
3767598,McKinley Ave,89801,North Fork,NV,41.482409,-115.816747,32007
3767598,McKinley Ave,89801,Rowland,NV,41.247991,-115.761405,32007
3767598,McKinley Ave,89801,Spring Creek,NV,41.247991,-115.761405,32007
525387,McKinley Ave,90001,Los Angeles,CA,33.973951,-118.248405,06037
525387,McKinley Ave,90001,Florence,CA,33.974459,-118.248129,06037
525387,McKinley Ave,90001,Firestone Park,CA,33.963071,-118.232573,06037
525387,McKinley Ave,90001,Nadeau,CA,33.965571,-118.243128,06037
525126,McKinley Ave,90002,Los Angeles,CA,33.950514,-118.245855,06037
525126,McKinley Ave,90002,Watts,CA,33.940571,-118.24285,06037
525126,McKinley Ave,90002,Graham,CA,33.949099,-118.246737,06037
526731,McKinley Ave,90011,Los Angeles,CA,34.00709,-118.258681,06037
524020,McKinley Ave,90059,Los Angeles,CA,33.921065,-118.244955,06037
523081,McKinley Ave,90220,Compton,CA,33.874815,-118.240208,06037
523081,McKinley Ave,90220,Rancho Dominguez,CA,33.874815,-118.240208,06037
524163,McKinley Ave,90280,South Gate,CA,33.937714,-118.193403,06037
524163,McKinley Ave,90280,Hollydale,CA,33.914737,-118.161736,06037
524163,McKinley Ave,90280,Vinvale,CA,33.944159,-118.192761,06037
524163,McKinley Ave,90280,Workman,CA,33.929737,-118.168125,06037
560548,McKinley Ave,90291,Venice,CA,33.993396,-118.465193,06037
524201,McKinley Ave,90723,Paramount,CA,33.899015,-118.165152,06037
569129,McKinley Ave,90746,Carson,CA,33.859716,-118.255204,06037
716737,McKinley Ave,91710,Chino,CA,34.004473,-117.684702,06071
716737,McKinley Ave,91710,Boys Republic,CA,34.004473,-117.684702,06071
716737,McKinley Ave,91710,Sleepy Hollow,CA,34.004473,-117.684702,06071
546231,McKinley Ave,91750,La Verne,CA,34.10084,-117.76784,06037
546232,McKinley Ave,91768,Pomona,CA,34.063516,-117.790379,06037
745667,McKinley Ave,91950,National City,CA,32.671194,-117.084353,06073
712477,McKinley Ave,92404,San Bernardino,CA,34.183506,-117.221583,06071
712477,McKinley Ave,92404,Del Rosa,CA,34.148899,-117.243375,06071
713448,McKinley Ave,92410,San Bernardino,CA,34.106922,-117.297553,06071
892166,McKinley Ave,93030,Oxnard,CA,34.205247,-119.174092,06111
892166,McKinley Ave,93030,El Rio,CA,34.205247,-119.174092,06111
516178,McKinley Ave,93230,Hanford,CA,36.220468,-119.71776,06031
516178,McKinley Ave,93230,Grangeville,CA,36.343561,-119.708743,06031
516178,McKinley Ave,93230,Guernsey,CA,36.213006,-119.64096,06031
516178,McKinley Ave,93230,Hardwick,CA,36.401339,-119.718744,06031
508607,McKinley Ave,93308,Bakersfield,CA,35.567657,-118.892932,06029
508607,McKinley Ave,93308,Oildale,CA,35.41968,-119.019545,06029
508607,McKinley Ave,93308,Fruitvale,CA,35.383292,-119.083159,06029
782723,McKinley Ave,94134,San Francisco,CA,37.72168,-122.410832,06075
433777,McKinley Ave,94610,Oakland,CA,37.811277,-122.238779,06001
434534,McKinley Ave,94703,Berkeley,CA,37.865725,-122.27573,06001
825567,McKinley Ave,95126,San Jose,CA,37.326803,-121.916765,06085
826157,McKinley Ave,95126,San Jose,CA,37.326803,-121.916765,06085
783184,McKinley Ave,95231,French Camp,CA,37.883775,-121.290405,06077
783580,McKinley Ave,95330,Lathrop,CA,37.811976,-121.287362,06077
783580,McKinley Ave,95330,Mossdale,CA,37.78465,-121.308554,06077
785878,McKinley Ave,95337,Manteca,CA,37.743327,-121.227351,06077
857879,McKinley Ave,95419,Camp Meeker,CA,38.417883,-122.959401,06097
496698,McKinley Ave,95536,Ferndale,CA,40.465229,-124.26879,06023
496698,McKinley Ave,95536,Arlynda Corners,CA,40.594851,-124.255056,06023
496698,McKinley Ave,95536,Capetown,CA,40.466242,-124.367277,06023
496698,McKinley Ave,95536,Port Kenyon,CA,40.595129,-124.279779,06023
496698,McKinley Ave,95536,Waddington,CA,40.567075,-124.20172,06023
895827,McKinley Ave,95695,Woodland,CA,38.74388,-121.915653,06113
872137,McKinley Ave,96021,Corning,CA,39.92766,-122.17916,06103
872137,McKinley Ave,96021,Richfield,CA,39.974879,-122.176657,06103
4994172,McKinley Ave,97045,Oregon City,OR,45.317893,-122.523602,41005
4994172,McKinley Ave,97045,Canemah,OR,45.345676,-122.621203,41005
4994172,McKinley Ave,97045,Carus,OR,45.271233,-122.570645,41005
4994172,McKinley Ave,97045,Clackamas Heights,OR,45.371232,-122.579258,41005
4994172,McKinley Ave,97045,Fischers Mill,OR,45.338733,-122.435643,41005
4994172,McKinley Ave,97045,Logan,OR,45.320277,-122.536467,41005
4994172,McKinley Ave,97045,Park Place,OR,45.375954,-122.582591,41005
4994172,McKinley Ave,97045,Redland,OR,45.343455,-122.492866,41005
5032912,McKinley Ave,97424,Cottage Grove,OR,43.72893,-123.049498,41039
5032912,McKinley Ave,97424,Latham,OR,43.775401,-123.062302,41039
5032912,McKinley Ave,97424,London,OR,43.634566,-123.092854,41039
5032912,McKinley Ave,97424,Walden,OR,43.776234,-123.005355,41039
6634974,McKinley Ave,98014,Carnation,WA,47.661862,-121.927236,53033
6634974,McKinley Ave,98014,Stillwater,WA,47.682878,-121.920119,53033
6656457,McKinley Ave,98377,Randle,WA,46.516754,-121.894411,53041
6666469,McKinley Ave,98404,Tacoma,WA,47.209131,-122.397929,53053
6612972,McKinley Ave,98520,Aberdeen,WA,46.97537,-123.81572,53027
6612972,McKinley Ave,98520,Aberdeen Gardens,WA,47.062592,-123.779611,53027
6612972,McKinley Ave,98520,Bay City,WA,46.864536,-124.059338,53027
6612972,McKinley Ave,98520,Central Park,WA,46.973428,-123.692386,53027
6612972,McKinley Ave,98520,Greenwood,WA,47.205638,-123.754329,53027
6612972,McKinley Ave,98520,Junction City,WA,46.970927,-123.773499,53027
6612972,McKinley Ave,98520,Markham,WA,46.905369,-123.99767,53027
6612972,McKinley Ave,98520,Ocosta,WA,46.888703,-124.038504,53027
6612972,McKinley Ave,98520,South Aberdeen,WA,46.968705,-123.802666,53027
6612972,McKinley Ave,98520,Wishkah,WA,47.117869,-123.772112,53027
6661095,McKinley Ave,98812,Brewster,WA,48.09598,-119.78062,53047
6661095,McKinley Ave,98812,Monse,WA,48.141258,-119.677834,53047
6661095,McKinley Ave,98812,Rocky Butte,WA,48.153148,-119.742877,53017
6720274,McKinley Ave,98902,Yakima,WA,46.596673,-120.533851,53077
6720274,McKinley Ave,98902,Ahtanum,WA,46.596673,-120.533851,53077
6720274,McKinley Ave,98902,Fruitvale,WA,46.617904,-120.553122,53077
6720274,McKinley Ave,98902,Harwood,WA,46.596673,-120.533851,53077
6720274,McKinley Ave,98902,Pomona,WA,46.596673,-120.533851,53077
6720274,McKinley Ave,98902,Tampico,WA,46.596673,-120.533851,53077
6720274,McKinley Ave,98902,Weikel,WA,46.596673,-120.533851,53077
157034,McKinley Ave,99517,Anchorage,AK,61.189494,-149.93809,02020
167653,McKinley Ave,99611,Kenai,AK,60.55444,-151.25833,02122
171147,McKinley Ave,99635,Nikiski,AK,60.700696,-151.276633,02122
171147,McKinley Ave,99635,Nikishka,AK,60.702778,-151.402778,02122
